{"type": "FeatureCollection", "crs": {"type": "name", "properties": {"name": "urn:ogc:def:crs:EPSG::6668"}}, "features": [{"type": "Feature", "properties": {"P29_001": "23101", "P29_002": "D123110000010", "P29_003": "16004", "P29_004": "名古屋大学教育学部附属高等学校", "P29_005": "愛知県名古屋市千種区不老町", "P29_006": "1", "P29_007": "0", "P29_008": "00", "P29_009": null}, "geometry": {"type": "Point", "coordinates": [136.96270345351118, 35.15770805726553]}}, {"type": "Feature", "properties": {"P29_001": "23210", "P29_002": "D123110000029", "P29_003": "16004", "P29_004": "愛知教育大学附属高等学校", "P29_005": "愛知県刈谷市井ケ谷町広沢1", "P29_006": "1", "P29_007": "0", "P29_008": "00", "P29_009": null}, "geometry": {"type": "Point", "coordinates": [137.05270221750408, 35.04992451326542]}}, {"type": "Feature", "properties": {"P29_001": "23102", "P29_002": "D123210000018", "P29_003": "16004", "P29_004": "愛知県立旭丘高等学校", "P29_005": "愛知県名古屋市東区出来町3-6-15", "P29_006": "2", "P29_007": "0", "P29_008": "00", "P29_009": null}, "geometry": {"type": "Point", "coordinates": [136.9388269692384, 35.184632791100235]}}, {"type": "Feature", "properties": {"P29_001": "23104", "P29_002": "D123210000027", "P29_003": "16004", "P29_004": "愛知県立名古屋西高等学校", "P29_005": "愛知県名古屋市西区天神山町4-7", "P29_006": "2", "P29_007": "0", "P29_008": "00", "P29_009": null}, "geometry": {"type": "Point", "coordinates": [136.8842703252578, 35.18976440040985]}}, {"type": "Feature", "properties": {"P29_001": "23105", "P29_002": "D123210000045", "P29_003": "16004", "P29_004": "愛知県立松蔭高等学校", "P29_005": "愛知県名古屋市中村区烏森町2-2", "P29_006": "2", "P29_007": "0", "P29_008": "00", "P29_009": null}, "geometry": {"type": "Point", "coordinates": [136.86130165630888, 35.15536736902772]}}, {"type": "Feature", "properties": {"P29_001": "23111", "P29_002": "D123210000054", "P29_003": "16004", "P29_004": "愛知県立惟信高等学校", "P29_005": "愛知県名古屋市港区惟信町2-262", "P29_006": "2", "P29_007": "0", "P29_008": "00", "P29_009": null}, "geometry": {"type": "Point", "coordinates": [136.84204821664082, 35.10613304918053]}}, {"type": "Feature", "properties": {"P29_001": "23109", "P29_002": "D123210000063", "P29_003": "16004", "P29_004": "愛知県立熱田高等学校", "P29_005": "愛知県名古屋市熱田区千年1-17-71", "P29_006": "2", "P29_007": "0", "P29_008": "00", "P29_009": null}, "geometry": {"type": "Point", "coordinates": [136.89986317468714, 35.11725815905985]}}, {"type": "Feature", "properties": {"P29_001": "23108", "P29_002": "D123210000081", "P29_003": "16004", "P29_004": "愛知県立昭和高等学校", "P29_005": "愛知県名古屋市瑞穂区玉水町1-18", "P29_006": "2", "P29_007": "0", "P29_008": "00", "P29_009": null}, "geometry": {"type": "Point", "coordinates": [136.96076827210882, 35.12255487191407]}}, {"type": "Feature", "properties": {"P29_001": "23115", "P29_002": "D123210000090", "P29_003": "16004", "P29_004": "愛知県立千種高等学校", "P29_005": "愛知県名古屋市名東区社台2-206", "P29_006": "2", "P29_007": "0", "P29_008": "00", "P29_009": null}, "geometry": {"type": "Point", "coordinates": [136.99716492229504, 35.1722130915601]}}, {"type": "Feature", "properties": {"P29_001": "23112", "P29_002": "D123210000134", "P29_003": "16004", "P29_004": "愛知県立名古屋工科高等学校", "P29_005": "愛知県名古屋市南区阿原町1", "P29_006": "2", "P29_007": "0", "P29_008": "00", "P29_009": null}, "geometry": {"type": "Point", "coordinates": [136.9392699930583, 35.086700063725615]}}, {"type": "Feature", "properties": {"P29_001": "23204", "P29_002": "D123210000152", "P29_003": "16004", "P29_004": "愛知県立瀬戸高等学校", "P29_005": "愛知県瀬戸市東山町1-5", "P29_006": "2", "P29_007": "0", "P29_008": "00", "P29_009": null}, "geometry": {"type": "Point", "coordinates": [137.0638446804518, 35.226393734342835]}}, {"type": "Feature", "properties": {"P29_001": "23206", "P29_002": "D123210000170", "P29_003": "16004", "P29_004": "愛知県立春日井高等学校", "P29_005": "愛知県春日井市鳥居松町1-55", "P29_006": "2", "P29_007": "0", "P29_008": "00", "P29_009": null}, "geometry": {"type": "Point", "coordinates": [136.96604067696387, 35.2416737391351]}}, {"type": "Feature", "properties": {"P29_001": "23238", "P29_002": "D123210000189", "P29_003": "16004", "P29_004": "愛知県立長久手高等学校", "P29_005": "愛知県長久手市岩作高山38", "P29_006": "2", "P29_007": "0", "P29_008": "00", "P29_009": null}, "geometry": {"type": "Point", "coordinates": [137.04261145025362, 35.19227755750889]}}, {"type": "Feature", "properties": {"P29_001": "23302", "P29_002": "D123210000198", "P29_003": "16004", "P29_004": "愛知県立東郷高等学校", "P29_005": "愛知県愛知郡東郷町大字春木字狐塚3801-2", "P29_006": "2", "P29_007": "0", "P29_008": "00", "P29_009": null}, "geometry": {"type": "Point", "coordinates": [137.04421136657925, 35.08705318557293]}}, {"type": "Feature", "properties": {"P29_001": "23206", "P29_002": "D123210000205", "P29_003": "16004", "P29_004": "愛知県立春日井泉高等学校", "P29_005": "愛知県春日井市大泉寺町1059-1", "P29_006": "2", "P29_007": "0", "P29_008": "00", "P29_009": null}, "geometry": {"type": "Point", "coordinates": [137.00115662487286, 35.26623999532555]}}, {"type": "Feature", "properties": {"P29_001": "23226", "P29_002": "D123210000214", "P29_003": "16004", "P29_004": "愛知県立旭野高等学校", "P29_005": "愛知県尾張旭市東印場町3-4-1", "P29_006": "2", "P29_007": "0", "P29_008": "00", "P29_009": null}, "geometry": {"type": "Point", "coordinates": [137.0193306083682, 35.21046874016733]}}, {"type": "Feature", "properties": {"P29_001": "23113", "P29_002": "D123210000232", "P29_003": "16004", "P29_004": "愛知県立守山高等学校", "P29_005": "愛知県名古屋市守山区中志段味字元屋敷1267", "P29_006": "2", "P29_007": "0", "P29_008": "00", "P29_009": null}, "geometry": {"type": "Point", "coordinates": [137.0233405065693, 35.25181307416047]}}, {"type": "Feature", "properties": {"P29_001": "23206", "P29_002": "D123210000241", "P29_003": "16004", "P29_004": "愛知県立春日井西高等学校", "P29_005": "愛知県春日井市田楽町1320", "P29_006": "2", "P29_007": "0", "P29_008": "00", "P29_009": null}, "geometry": {"type": "Point", "coordinates": [136.94956452164865, 35.27136256166742]}}, {"type": "Feature", "properties": {"P29_001": "23114", "P29_002": "D123210000250", "P29_003": "16004", "P29_004": "愛知県立鳴海高等学校", "P29_005": "愛知県名古屋市緑区左京山801", "P29_006": "2", "P29_007": "0", "P29_008": "00", "P29_009": null}, "geometry": {"type": "Point", "coordinates": [136.96174813679755, 35.06789852569972]}}, {"type": "Feature", "properties": {"P29_001": "23116", "P29_002": "D123210000278", "P29_003": "16004", "P29_004": "愛知県立天白高等学校", "P29_005": "愛知県名古屋市天白区植田東1-601", "P29_006": "2", "P29_007": "0", "P29_008": "00", "P29_009": null}, "geometry": {"type": "Point", "coordinates": [136.99540598284804, 35.134830272803]}}, {"type": "Feature", "properties": {"P29_001": "23204", "P29_002": "D123210000287", "P29_003": "16004", "P29_004": "愛知県立瀬戸西高等学校", "P29_005": "愛知県瀬戸市緑町1-140", "P29_006": "2", "P29_007": "0", "P29_008": "00", "P29_009": null}, "geometry": {"type": "Point", "coordinates": [137.0884927788832, 35.20656738810584]}}, {"type": "Feature", "properties": {"P29_001": "23206", "P29_002": "D123210000296", "P29_003": "16004", "P29_004": "愛知県立春日井東高等学校", "P29_005": "愛知県春日井市廻間町字神屋洞703-73", "P29_006": "2", "P29_007": "0", "P29_008": "00", "P29_009": null}, "geometry": {"type": "Point", "coordinates": [137.0333402751032, 35.29699289348576]}}, {"type": "Feature", "properties": {"P29_001": "23230", "P29_002": "D123210000303", "P29_003": "16004", "P29_004": "愛知県立日進高等学校", "P29_005": "愛知県日進市米野木三ヶ峯4-18", "P29_006": "2", "P29_007": "0", "P29_008": "00", "P29_009": null}, "geometry": {"type": "Point", "coordinates": [137.09276390691272, 35.146061603554166]}}, {"type": "Feature", "properties": {"P29_001": "23206", "P29_002": "D123210000312", "P29_003": "16004", "P29_004": "愛知県立高蔵寺高等学校", "P29_005": "愛知県春日井市藤山台1-3-2", "P29_006": "2", "P29_007": "0", "P29_008": "00", "P29_009": null}, "geometry": {"type": "Point", "coordinates": [137.0453269862059, 35.285449614341665]}}, {"type": "Feature", "properties": {"P29_001": "23206", "P29_002": "D123210000321", "P29_003": "16004", "P29_004": "愛知県立春日井工科高等学校", "P29_005": "愛知県春日井市熊野町五反田1180-1", "P29_006": "2", "P29_007": "0", "P29_008": "00", "P29_009": null}, "geometry": {"type": "Point", "coordinates": [136.99417285426296, 35.24540303993598]}}, {"type": "Feature", "properties": {"P29_001": "23230", "P29_002": "D123210000330", "P29_003": "16004", "P29_004": "愛知県立日進西高等学校", "P29_005": "愛知県日進市浅田町上小深田8-4", "P29_006": "2", "P29_007": "0", "P29_008": "00", "P29_009": null}, "geometry": {"type": "Point", "coordinates": [137.03313480023883, 35.120311329787285]}}, {"type": "Feature", "properties": {"P29_001": "23204", "P29_002": "D123210000358", "P29_003": "16004", "P29_004": "愛知県立瀬戸北総合高等学校", "P29_005": "愛知県瀬戸市本郷町260", "P29_006": "2", "P29_007": "0", "P29_008": "00", "P29_009": null}, "geometry": {"type": "Point", "coordinates": [137.06833108263442, 35.24696428393466]}}, {"type": "Feature", "properties": {"P29_001": "23206", "P29_002": "D123210000367", "P29_003": "16004", "P29_004": "愛知県立春日井南高等学校", "P29_005": "愛知県春日井市如意申町3-5-1", "P29_006": "2", "P29_007": "0", "P29_008": "00", "P29_009": null}, "geometry": {"type": "Point", "coordinates": [136.94689265646323, 35.24644943200051]}}, {"type": "Feature", "properties": {"P29_001": "23103", "P29_002": "D123210000385", "P29_003": "16004", "P29_004": "愛知県立城北つばさ高等学校", "P29_005": "愛知県名古屋市北区福徳町広瀬島350-4", "P29_006": "2", "P29_007": "0", "P29_008": "00", "P29_009": null}, "geometry": {"type": "Point", "coordinates": [136.90218686534436, 35.211136469232]}}, {"type": "Feature", "properties": {"P29_001": "23217", "P29_002": "D123210000401", "P29_003": "16004", "P29_004": "愛知県立尾北高等学校", "P29_005": "愛知県江南市北山町西4", "P29_006": "2", "P29_007": "0", "P29_008": "00", "P29_009": null}, "geometry": {"type": "Point", "coordinates": [136.87469885492254, 35.320564818668736]}}, {"type": "Feature", "properties": {"P29_001": "23215", "P29_002": "D123210000429", "P29_003": "16004", "P29_004": "愛知県立犬山高等学校", "P29_005": "愛知県犬山市大字犬山字北首塚2", "P29_006": "2", "P29_007": "0", "P29_008": "00", "P29_009": null}, "geometry": {"type": "Point", "coordinates": [136.93623960211306, 35.38012592452985]}}, {"type": "Feature", "properties": {"P29_001": "23219", "P29_002": "D123210000438", "P29_003": "16004", "P29_004": "愛知県立小牧工科高等学校", "P29_005": "愛知県小牧市久保一色3737-1", "P29_006": "2", "P29_007": "0", "P29_008": "00", "P29_009": null}, "geometry": {"type": "Point", "coordinates": [136.92722554052733, 35.32041285373807]}}, {"type": "Feature", "properties": {"P29_001": "23362", "P29_002": "D123210000456", "P29_003": "16004", "P29_004": "愛知県立丹羽高等学校", "P29_005": "愛知県丹羽郡扶桑町大字高雄字柳前95", "P29_006": "2", "P29_007": "0", "P29_008": "00", "P29_009": null}, "geometry": {"type": "Point", "coordinates": [136.92525839541153, 35.35093650211911]}}, {"type": "Feature", "properties": {"P29_001": "23203", "P29_002": "D123210000492", "P29_003": "16004", "P29_004": "愛知県立一宮高等学校", "P29_005": "愛知県一宮市北園通6-9", "P29_006": "2", "P29_007": "0", "P29_008": "00", "P29_009": null}, "geometry": {"type": "Point", "coordinates": [136.80895880364952, 35.29583644098472]}}, {"type": "Feature", "properties": {"P29_001": "23203", "P29_002": "D123210000508", "P29_003": "16004", "P29_004": "愛知県立一宮商業高等学校", "P29_005": "愛知県一宮市文京2-1-7", "P29_006": "2", "P29_007": "0", "P29_008": "00", "P29_009": null}, "geometry": {"type": "Point", "coordinates": [136.80338851503294, 35.313646828826634]}}, {"type": "Feature", "properties": {"P29_001": "23203", "P29_002": "D123210000517", "P29_003": "16004", "P29_004": "愛知県立一宮工科高等学校", "P29_005": "愛知県一宮市千秋町佐野辻田2112", "P29_006": "2", "P29_007": "0", "P29_008": "00", "P29_009": null}, "geometry": {"type": "Point", "coordinates": [136.85267858613398, 35.30023491888969]}}, {"type": "Feature", "properties": {"P29_001": "23203", "P29_002": "D123210000526", "P29_003": "16004", "P29_004": "愛知県立木曽川高等学校", "P29_005": "愛知県一宮市開明樋西11-1", "P29_006": "2", "P29_007": "0", "P29_008": "00", "P29_009": null}, "geometry": {"type": "Point", "coordinates": [136.75614598762874, 35.32039520079813]}}, {"type": "Feature", "properties": {"P29_001": "23203", "P29_002": "D123210000535", "P29_003": "16004", "P29_004": "愛知県立一宮起工科高等学校", "P29_005": "愛知県一宮市小信中島郷南2", "P29_006": "2", "P29_007": "0", "P29_008": "00", "P29_009": null}, "geometry": {"type": "Point", "coordinates": [136.74520453721686, 35.306412538572815]}}, {"type": "Feature", "properties": {"P29_001": "23220", "P29_002": "D123210000544", "P29_003": "16004", "P29_004": "愛知県立稲沢高等学校", "P29_005": "愛知県稲沢市平野町加世11", "P29_006": "2", "P29_007": "0", "P29_008": "00", "P29_009": null}, "geometry": {"type": "Point", "coordinates": [136.7861364851486, 35.24083740632264]}}, {"type": "Feature", "properties": {"P29_001": "23203", "P29_002": "D123210000553", "P29_003": "16004", "P29_004": "愛知県立一宮西高等学校", "P29_005": "愛知県一宮市萩原町串作字河田1", "P29_006": "2", "P29_007": "0", "P29_008": "00", "P29_009": null}, "geometry": {"type": "Point", "coordinates": [136.7669433299179, 35.280066058361534]}}, {"type": "Feature", "properties": {"P29_001": "23203", "P29_002": "D123210000580", "P29_003": "16004", "P29_004": "愛知県立尾西高等学校", "P29_005": "愛知県一宮市上祖父江字小稲葉18", "P29_006": "2", "P29_007": "0", "P29_008": "00", "P29_009": null}, "geometry": {"type": "Point", "coordinates": [136.71774216791582, 35.272785430161974]}}, {"type": "Feature", "properties": {"P29_001": "23234", "P29_002": "D123210000599", "P29_003": "16004", "P29_004": "愛知県立西春高等学校", "P29_005": "愛知県北名古屋市弥勒寺西2-1", "P29_006": "2", "P29_007": "0", "P29_008": "00", "P29_009": null}, "geometry": {"type": "Point", "coordinates": [136.86540829384379, 35.2528825807902]}}, {"type": "Feature", "properties": {"P29_001": "23203", "P29_002": "D123210000606", "P29_003": "16004", "P29_004": "愛知県立一宮南高等学校", "P29_005": "愛知県一宮市千秋町町屋字平松6-1", "P29_006": "2", "P29_007": "0", "P29_008": "00", "P29_009": null}, "geometry": {"type": "Point", "coordinates": [136.85699061817587, 35.29314466268839]}}, {"type": "Feature", "properties": {"P29_001": "23203", "P29_002": "D123210000615", "P29_003": "16004", "P29_004": "愛知県立一宮興道高等学校", "P29_005": "愛知県一宮市大和町於保字十二-1-1", "P29_006": "2", "P29_007": "0", "P29_008": "00", "P29_009": null}, "geometry": {"type": "Point", "coordinates": [136.79326553878187, 35.27002941120274]}}, {"type": "Feature", "properties": {"P29_001": "23233", "P29_002": "D123210000624", "P29_003": "16004", "P29_004": "愛知県立新川高等学校", "P29_005": "愛知県清須市阿原北野18", "P29_006": "2", "P29_007": "0", "P29_008": "00", "P29_009": null}, "geometry": {"type": "Point", "coordinates": [136.86113835612144, 35.2145588339119]}}, {"type": "Feature", "properties": {"P29_001": "23220", "P29_002": "D123210000633", "P29_003": "16004", "P29_004": "愛知県立杏和高等学校", "P29_005": "愛知県稲沢市祖父江町二俣宮西1-1", "P29_006": "2", "P29_007": "0", "P29_008": "00", "P29_009": null}, "geometry": {"type": "Point", "coordinates": [136.72550758607164, 35.24392308951899]}}, {"type": "Feature", "properties": {"P29_001": "23208", "P29_002": "D123210000642", "P29_003": "16004", "P29_004": "愛知県立津島高等学校", "P29_005": "愛知県津島市宮川町3-80", "P29_006": "2", "P29_007": "0", "P29_008": "00", "P29_009": null}, "geometry": {"type": "Point", "coordinates": [136.71506936438496, 35.16616127164162]}}, {"type": "Feature", "properties": {"P29_001": "23208", "P29_002": "D123210000651", "P29_003": "16004", "P29_004": "愛知県立津島北高等学校", "P29_005": "愛知県津島市又吉町4-1", "P29_006": "2", "P29_007": "0", "P29_008": "00", "P29_009": null}, "geometry": {"type": "Point", "coordinates": [136.7251607459402, 35.186777619099935]}}, {"type": "Feature", "properties": {"P29_001": "23232", "P29_002": "D123210000660", "P29_003": "16004", "P29_004": "愛知県立佐屋高等学校", "P29_005": "愛知県愛西市東條町高田39", "P29_006": "2", "P29_007": "0", "P29_008": "00", "P29_009": null}, "geometry": {"type": "Point", "coordinates": [136.73128508206108, 35.13747973727403]}}, {"type": "Feature", "properties": {"P29_001": "23237", "P29_002": "D123210000679", "P29_003": "16004", "P29_004": "愛知県立五条高等学校", "P29_005": "愛知県あま市西今宿阿弥陀寺56", "P29_006": "2", "P29_007": "0", "P29_008": "00", "P29_009": null}, "geometry": {"type": "Point", "coordinates": [136.8244573527478, 35.204093432397]}}, {"type": "Feature", "properties": {"P29_001": "23232", "P29_002": "D123210000688", "P29_003": "16004", "P29_004": "愛知県立愛西工科高等学校", "P29_005": "愛知県愛西市渕高町蔭島1", "P29_006": "2", "P29_007": "0", "P29_008": "00", "P29_009": null}, "geometry": {"type": "Point", "coordinates": [136.72383583181434, 35.218479299609946]}}, {"type": "Feature", "properties": {"P29_001": "23208", "P29_002": "D123210000697", "P29_003": "16004", "P29_004": "愛知県立津島東高等学校", "P29_005": "愛知県津島市蛭間町字弁日1", "P29_006": "2", "P29_007": "0", "P29_008": "00", "P29_009": null}, "geometry": {"type": "Point", "coordinates": [136.766424499853, 35.18322281547991]}}, {"type": "Feature", "properties": {"P29_001": "23235", "P29_002": "D123210000713", "P29_003": "16004", "P29_004": "愛知県立海翔高等学校", "P29_005": "愛知県弥富市六條町大崎22", "P29_006": "2", "P29_007": "0", "P29_008": "00", "P29_009": null}, "geometry": {"type": "Point", "coordinates": [136.75550235300898, 35.1030149256831]}}, {"type": "Feature", "properties": {"P29_001": "23205", "P29_002": "D123210000731", "P29_003": "16004", "P29_004": "愛知県立半田商業高等学校", "P29_005": "愛知県半田市白山町2-30", "P29_006": "2", "P29_007": "0", "P29_008": "00", "P29_009": null}, "geometry": {"type": "Point", "coordinates": [136.92289042528077, 34.891899477166994]}}, {"type": "Feature", "properties": {"P29_001": "23205", "P29_002": "D123210000740", "P29_003": "16004", "P29_004": "愛知県立半田工科高等学校", "P29_005": "愛知県半田市柊町3-1", "P29_006": "2", "P29_007": "0", "P29_008": "00", "P29_009": null}, "geometry": {"type": "Point", "coordinates": [136.91430287070153, 34.90086599193081]}}, {"type": "Feature", "properties": {"P29_001": "23222", "P29_002": "D123210000777", "P29_003": "16004", "P29_004": "愛知県立横須賀高等学校", "P29_005": "愛知県東海市高横須賀町広脇1", "P29_006": "2", "P29_007": "0", "P29_008": "00", "P29_009": null}, "geometry": {"type": "Point", "coordinates": [136.89934125693978, 35.007551537734166]}}, {"type": "Feature", "properties": {"P29_001": "23445", "P29_002": "D123210000786", "P29_003": "16004", "P29_004": "愛知県立内海高等学校", "P29_005": "愛知県知多郡南知多町大字内海字奥鈴ヶ谷1-1", "P29_006": "2", "P29_007": "0", "P29_008": "00", "P29_009": null}, "geometry": {"type": "Point", "coordinates": [136.8981501212527, 34.76170997001925]}}, {"type": "Feature", "properties": {"P29_001": "23223", "P29_002": "D123210000795", "P29_003": "16004", "P29_004": "愛知県立桃陵高等学校", "P29_005": "愛知県大府市中央町5-15", "P29_006": "2", "P29_007": "0", "P29_008": "00", "P29_009": null}, "geometry": {"type": "Point", "coordinates": [136.96164713475227, 35.01403679168957]}}, {"type": "Feature", "properties": {"P29_001": "23222", "P29_002": "D123210000802", "P29_003": "16004", "P29_004": "東海樟風高等学校", "P29_005": "愛知県東海市大田町曽根1", "P29_006": "2", "P29_007": "0", "P29_008": "00", "P29_009": null}, "geometry": {"type": "Point", "coordinates": [136.90243363191803, 35.0173176103764]}}, {"type": "Feature", "properties": {"P29_001": "23442", "P29_002": "D123210000811", "P29_003": "16004", "P29_004": "愛知県立東浦高等学校", "P29_005": "愛知県知多郡東浦町大字生路字冨士塚20", "P29_006": "2", "P29_007": "0", "P29_008": "00", "P29_009": null}, "geometry": {"type": "Point", "coordinates": [136.96281741361307, 34.95433867351574]}}, {"type": "Feature", "properties": {"P29_001": "23447", "P29_002": "D123210000820", "P29_003": "16004", "P29_004": "愛知県立武豊高等学校", "P29_005": "愛知県知多郡武豊町ヲヲガケ8", "P29_006": "2", "P29_007": "0", "P29_008": "00", "P29_009": null}, "geometry": {"type": "Point", "coordinates": [136.9004104755947, 34.842311939413904]}}, {"type": "Feature", "properties": {"P29_001": "23222", "P29_002": "D123210000839", "P29_003": "16004", "P29_004": "愛知県立東海南高等学校", "P29_005": "愛知県東海市加木屋町社山55", "P29_006": "2", "P29_007": "0", "P29_008": "00", "P29_009": null}, "geometry": {"type": "Point", "coordinates": [136.9020294951471, 34.990627483489064]}}, {"type": "Feature", "properties": {"P29_001": "23441", "P29_002": "D123210000848", "P29_003": "16004", "P29_004": "愛知県立阿久比高等学校", "P29_005": "愛知県知多郡阿久比町大字阿久比字尾社2-1", "P29_006": "2", "P29_007": "0", "P29_008": "00", "P29_009": null}, "geometry": {"type": "Point", "coordinates": [136.9052803360527, 34.9303334675429]}}, {"type": "Feature", "properties": {"P29_001": "23205", "P29_002": "D123210000857", "P29_003": "16004", "P29_004": "愛知県立半田東高等学校", "P29_005": "愛知県半田市西生見町30", "P29_006": "2", "P29_007": "0", "P29_008": "00", "P29_009": null}, "geometry": {"type": "Point", "coordinates": [136.952141650591, 34.92902583925751]}}, {"type": "Feature", "properties": {"P29_001": "23223", "P29_002": "D123210000866", "P29_003": "16004", "P29_004": "愛知県立大府東高等学校", "P29_005": "愛知県大府市横根町膝折1-4", "P29_006": "2", "P29_007": "0", "P29_008": "00", "P29_009": null}, "geometry": {"type": "Point", "coordinates": [136.97969268189, 35.02211677862]}}, {"type": "Feature", "properties": {"P29_001": "23202", "P29_002": "D123210000893", "P29_003": "16004", "P29_004": "愛知県立岡崎高等学校", "P29_005": "愛知県岡崎市明大寺町伝馬1", "P29_006": "2", "P29_007": "0", "P29_008": "00", "P29_009": null}, "geometry": {"type": "Point", "coordinates": [137.1706382483752, 34.94663671252784]}}, {"type": "Feature", "properties": {"P29_001": "23202", "P29_002": "D123210000928", "P29_003": "16004", "P29_004": "愛知県立岡崎商業高等学校", "P29_005": "愛知県岡崎市栄町3-76", "P29_006": "2", "P29_007": "0", "P29_008": "00", "P29_009": null}, "geometry": {"type": "Point", "coordinates": [137.179128146731, 34.947838025906385]}}, {"type": "Feature", "properties": {"P29_001": "23202", "P29_002": "D123210000937", "P29_003": "16004", "P29_004": "愛知県立岡崎工科高等学校", "P29_005": "愛知県岡崎市羽根町陣場47", "P29_006": "2", "P29_007": "0", "P29_008": "00", "P29_009": null}, "geometry": {"type": "Point", "coordinates": [137.17169142212134, 34.925409203200005]}}, {"type": "Feature", "properties": {"P29_001": "23213", "P29_002": "D123210000946", "P29_003": "16004", "P29_004": "愛知県立西尾高等学校", "P29_005": "愛知県西尾市桜町奥新田2-2", "P29_006": "2", "P29_007": "0", "P29_008": "00", "P29_009": null}, "geometry": {"type": "Point", "coordinates": [137.05517261748864, 34.88316947064268]}}, {"type": "Feature", "properties": {"P29_001": "23213", "P29_002": "D123210000955", "P29_003": "16004", "P29_004": "愛知県立鶴城丘高等学校", "P29_005": "愛知県西尾市亀沢町300", "P29_006": "2", "P29_007": "0", "P29_008": "00", "P29_009": null}, "geometry": {"type": "Point", "coordinates": [137.04909386714007, 34.87370234208426]}}, {"type": "Feature", "properties": {"P29_001": "23213", "P29_002": "D123210000964", "P29_003": "16004", "P29_004": "愛知県立吉良高等学校", "P29_005": "愛知県西尾市吉良町大字白浜新田字南切1-4", "P29_006": "2", "P29_007": "0", "P29_008": "00", "P29_009": null}, "geometry": {"type": "Point", "coordinates": [137.0774800910606, 34.787164388724776]}}, {"type": "Feature", "properties": {"P29_001": "23501", "P29_002": "D123210000973", "P29_003": "16004", "P29_004": "愛知県立幸田高等学校", "P29_005": "愛知県額田郡幸田町大字高力字神山78", "P29_006": "2", "P29_007": "0", "P29_008": "00", "P29_009": null}, "geometry": {"type": "Point", "coordinates": [137.16866724743127, 34.882184851379996]}}, {"type": "Feature", "properties": {"P29_001": "23202", "P29_002": "D123210001008", "P29_003": "16004", "P29_004": "愛知県立岡崎西高等学校", "P29_005": "愛知県岡崎市日名南町7", "P29_006": "2", "P29_007": "0", "P29_008": "00", "P29_009": null}, "geometry": {"type": "Point", "coordinates": [137.15444549571853, 34.968096722654884]}}, {"type": "Feature", "properties": {"P29_001": "23210", "P29_002": "D123210001017", "P29_003": "16004", "P29_004": "愛知県立刈谷高等学校", "P29_005": "愛知県刈谷市寿町5-101", "P29_006": "2", "P29_007": "0", "P29_008": "00", "P29_009": null}, "geometry": {"type": "Point", "coordinates": [136.99851918783463, 34.983496637766045]}}, {"type": "Feature", "properties": {"P29_001": "23210", "P29_002": "D123210001035", "P29_003": "16004", "P29_004": "愛知県立刈谷北高等学校", "P29_005": "愛知県刈谷市寺横町1-67", "P29_006": "2", "P29_007": "0", "P29_008": "00", "P29_009": null}, "geometry": {"type": "Point", "coordinates": [136.99432509245534, 34.99042567167754]}}, {"type": "Feature", "properties": {"P29_001": "23209", "P29_002": "D123210001044", "P29_003": "16004", "P29_004": "愛知県立碧南高等学校", "P29_005": "愛知県碧南市向陽町4-12", "P29_006": "2", "P29_007": "0", "P29_008": "00", "P29_009": null}, "geometry": {"type": "Point", "coordinates": [136.9944158936724, 34.88633986367189]}}, {"type": "Feature", "properties": {"P29_001": "23225", "P29_002": "D123210001053", "P29_003": "16004", "P29_004": "愛知県立知立高等学校", "P29_005": "愛知県知立市弘法2-5-8", "P29_006": "2", "P29_007": "0", "P29_008": "00", "P29_009": null}, "geometry": {"type": "Point", "coordinates": [137.04239842608175, 34.99818361484645]}}, {"type": "Feature", "properties": {"P29_001": "23213", "P29_002": "D123210001062", "P29_003": "16004", "P29_004": "愛知県立一色高等学校", "P29_005": "愛知県西尾市一色町大字赤羽字上郷中14", "P29_006": "2", "P29_007": "0", "P29_008": "00", "P29_009": null}, "geometry": {"type": "Point", "coordinates": [137.019958502274, 34.820811968101566]}}, {"type": "Feature", "properties": {"P29_001": "23227", "P29_002": "D123210001099", "P29_003": "16004", "P29_004": "愛知県立高浜高等学校", "P29_005": "愛知県高浜市本郷町1-6-1", "P29_006": "2", "P29_007": "0", "P29_008": "00", "P29_009": null}, "geometry": {"type": "Point", "coordinates": [136.99711423458572, 34.92889256068563]}}, {"type": "Feature", "properties": {"P29_001": "23210", "P29_002": "D123210001106", "P29_003": "16004", "P29_004": "愛知県立刈谷東高等学校", "P29_005": "愛知県刈谷市半城土町三ツ又20", "P29_006": "2", "P29_007": "0", "P29_008": "00", "P29_009": null}, "geometry": {"type": "Point", "coordinates": [137.01881580605755, 34.983800383491634]}}, {"type": "Feature", "properties": {"P29_001": "23209", "P29_002": "D123210001115", "P29_003": "16004", "P29_004": "愛知県立碧南工科高等学校", "P29_005": "愛知県碧南市丸山町3-10", "P29_006": "2", "P29_007": "0", "P29_008": "00", "P29_009": null}, "geometry": {"type": "Point", "coordinates": [136.99740470306457, 34.91009914776378]}}, {"type": "Feature", "properties": {"P29_001": "23212", "P29_002": "D123210001133", "P29_003": "16004", "P29_004": "愛知県立安城南高等学校", "P29_005": "愛知県安城市桜井町門原1", "P29_006": "2", "P29_007": "0", "P29_008": "00", "P29_009": null}, "geometry": {"type": "Point", "coordinates": [137.07400343273596, 34.92013346392869]}}, {"type": "Feature", "properties": {"P29_001": "23211", "P29_002": "D123210001188", "P29_003": "16004", "P29_004": "愛知県立豊田工科高等学校", "P29_005": "愛知県豊田市竹元町南細畔3", "P29_006": "2", "P29_007": "0", "P29_008": "00", "P29_009": null}, "geometry": {"type": "Point", "coordinates": [137.11879062900303, 35.02269710863159]}}, {"type": "Feature", "properties": {"P29_001": "23211", "P29_002": "D123210001204", "P29_003": "16004", "P29_004": "愛知県立衣台高等学校", "P29_005": "愛知県豊田市太平町平山5", "P29_006": "2", "P29_007": "0", "P29_008": "00", "P29_009": null}, "geometry": {"type": "Point", "coordinates": [137.1163004558463, 35.09865839839589]}}, {"type": "Feature", "properties": {"P29_001": "23236", "P29_002": "D123210001213", "P29_003": "16004", "P29_004": "愛知県立三好高等学校", "P29_005": "愛知県みよし市三好町東山110-1", "P29_006": "2", "P29_007": "0", "P29_008": "00", "P29_009": null}, "geometry": {"type": "Point", "coordinates": [137.087212240168, 35.083308177641584]}}, {"type": "Feature", "properties": {"P29_001": "23211", "P29_002": "D123210001222", "P29_003": "16004", "P29_004": "愛知県立豊田北高等学校", "P29_005": "愛知県豊田市千石町2-100-1", "P29_006": "2", "P29_007": "0", "P29_008": "00", "P29_009": null}, "geometry": {"type": "Point", "coordinates": [137.17232767801497, 35.08801131376996]}}, {"type": "Feature", "properties": {"P29_001": "23211", "P29_002": "D123210001240", "P29_003": "16004", "P29_004": "愛知県立豊田高等学校", "P29_005": "愛知県豊田市伊保町三本松1", "P29_006": "2", "P29_007": "0", "P29_008": "00", "P29_009": null}, "geometry": {"type": "Point", "coordinates": [137.15317213439252, 35.12163281361877]}}, {"type": "Feature", "properties": {"P29_001": "23211", "P29_002": "D123210001268", "P29_003": "16004", "P29_004": "愛知県立足助高等学校", "P29_005": "愛知県豊田市岩神町川原5", "P29_006": "2", "P29_007": "0", "P29_008": "00", "P29_009": null}, "geometry": {"type": "Point", "coordinates": [137.30777576823814, 35.130627102706896]}}, {"type": "Feature", "properties": {"P29_001": "23211", "P29_002": "D123210001277", "P29_003": "16004", "P29_004": "愛知県立松平高等学校", "P29_005": "愛知県豊田市鵜ヶ瀬町桐山1", "P29_006": "2", "P29_007": "0", "P29_008": "00", "P29_009": null}, "geometry": {"type": "Point", "coordinates": [137.21800818177553, 35.06358414981615]}}, {"type": "Feature", "properties": {"P29_001": "23221", "P29_002": "D123210001302", "P29_003": "16004", "P29_004": "愛知県立新城有教館高等学校", "P29_005": "愛知県新城市桜渕中野合併地", "P29_006": "2", "P29_007": "0", "P29_008": "00", "P29_009": null}, "geometry": {"type": "Point", "coordinates": [137.50578384924515, 34.89891364768724]}}, {"type": "Feature", "properties": {"P29_001": "23221", "P29_002": "D123210001311", "P29_003": "16004", "P29_004": "愛知県立新城有教館高等学校作手校舎", "P29_005": "愛知県新城市作手高里木戸口1-2", "P29_006": "2", "P29_007": "0", "P29_008": "00", "P29_009": null}, "geometry": {"type": "Point", "coordinates": [137.4257502218901, 34.977693261820065]}}, {"type": "Feature", "properties": {"P29_001": "23561", "P29_002": "D123210001320", "P29_003": "16004", "P29_004": "愛知県立田口高等学校", "P29_005": "愛知県北設楽郡設楽町清崎字林ノ後5-2", "P29_006": "2", "P29_007": "0", "P29_008": "00", "P29_009": null}, "geometry": {"type": "Point", "coordinates": [137.5680516493727, 35.092857371554445]}}, {"type": "Feature", "properties": {"P29_001": "23201", "P29_002": "D123210001339", "P29_003": "16004", "P29_004": "愛知県立時習館高等学校", "P29_005": "愛知県豊橋市富本町", "P29_006": "2", "P29_007": "0", "P29_008": "00", "P29_009": null}, "geometry": {"type": "Point", "coordinates": [137.38428226346423, 34.73874773470418]}}, {"type": "Feature", "properties": {"P29_001": "23201", "P29_002": "D123210001348", "P29_003": "16004", "P29_004": "愛知県立豊橋工科高等学校", "P29_005": "愛知県豊橋市草間町官有地", "P29_006": "2", "P29_007": "0", "P29_008": "00", "P29_009": null}, "geometry": {"type": "Point", "coordinates": [137.38229864667213, 34.73793802739553]}}, {"type": "Feature", "properties": {"P29_001": "23231", "P29_002": "D123210001366", "P29_003": "16004", "P29_004": "愛知県立渥美農業高等学校", "P29_005": "愛知県田原市加治町奥恩中1-1", "P29_006": "2", "P29_007": "0", "P29_008": "00", "P29_009": null}, "geometry": {"type": "Point", "coordinates": [137.24507799576807, 34.65651460854461]}}, {"type": "Feature", "properties": {"P29_001": "23207", "P29_002": "D123210001384", "P29_003": "16004", "P29_004": "愛知県立宝陵高等学校", "P29_005": "愛知県豊川市大木町鑓水445", "P29_006": "2", "P29_007": "0", "P29_008": "00", "P29_009": null}, "geometry": {"type": "Point", "coordinates": [137.41427540713795, 34.85912510273424]}}, {"type": "Feature", "properties": {"P29_001": "23207", "P29_002": "D123210001393", "P29_003": "16004", "P29_004": "愛知県立御津あおば高等学校", "P29_005": "愛知県豊川市御津町豊沢字松ノ下1", "P29_006": "2", "P29_007": "0", "P29_008": "00", "P29_009": null}, "geometry": {"type": "Point", "coordinates": [137.31443298555325, 34.831999503727204]}}, {"type": "Feature", "properties": {"P29_001": "23201", "P29_002": "D123210001400", "P29_003": "16004", "P29_004": "愛知県立豊橋商業高等学校", "P29_005": "愛知県豊橋市向山町官有地", "P29_006": "2", "P29_007": "0", "P29_008": "00", "P29_009": null}, "geometry": {"type": "Point", "coordinates": [137.39961784804913, 34.75715804869451]}}, {"type": "Feature", "properties": {"P29_001": "23201", "P29_002": "D123210001419", "P29_003": "16004", "P29_004": "愛知県立豊橋東高等学校", "P29_005": "愛知県豊橋市向山町字西猿22", "P29_006": "2", "P29_007": "0", "P29_008": "00", "P29_009": null}, "geometry": {"type": "Point", "coordinates": [137.40860342978863, 34.7549116440546]}}, {"type": "Feature", "properties": {"P29_001": "23201", "P29_002": "D123210001428", "P29_003": "16004", "P29_004": "愛知県立豊丘高等学校", "P29_005": "愛知県豊橋市豊岡町74", "P29_006": "2", "P29_007": "0", "P29_008": "00", "P29_009": null}, "geometry": {"type": "Point", "coordinates": [137.4202568888696, 34.7567134388268]}}, {"type": "Feature", "properties": {"P29_001": "23207", "P29_002": "D123210001437", "P29_003": "16004", "P29_004": "愛知県立国府高等学校", "P29_005": "愛知県豊川市国府町下坊入10-1", "P29_006": "2", "P29_007": "0", "P29_008": "00", "P29_009": null}, "geometry": {"type": "Point", "coordinates": [137.32921640775837, 34.830325480767534]}}, {"type": "Feature", "properties": {"P29_001": "23214", "P29_002": "D123210001455", "P29_003": "16004", "P29_004": "愛知県立蒲郡高等学校", "P29_005": "愛知県蒲郡市上本町8-9", "P29_006": "2", "P29_007": "0", "P29_008": "00", "P29_009": null}, "geometry": {"type": "Point", "coordinates": [137.22998992262538, 34.831964373949006]}}, {"type": "Feature", "properties": {"P29_001": "23214", "P29_002": "D123210001464", "P29_003": "16004", "P29_004": "愛知県立三谷水産高等学校", "P29_005": "愛知県蒲郡市三谷町水神町通2-1", "P29_006": "2", "P29_007": "0", "P29_008": "00", "P29_009": null}, "geometry": {"type": "Point", "coordinates": [137.24136261985285, 34.8152501690559]}}, {"type": "Feature", "properties": {"P29_001": "23214", "P29_002": "D123210001473", "P29_003": "16004", "P29_004": "愛知県立蒲郡東高等学校", "P29_005": "愛知県蒲郡市大塚町上千尾12-2", "P29_006": "2", "P29_007": "0", "P29_008": "00", "P29_009": null}, "geometry": {"type": "Point", "coordinates": [137.27379294894746, 34.81948890591138]}}, {"type": "Feature", "properties": {"P29_001": "23201", "P29_002": "D123210001482", "P29_003": "16004", "P29_004": "愛知県立豊橋南高等学校", "P29_005": "愛知県豊橋市南大清水町字元町450", "P29_006": "2", "P29_007": "0", "P29_008": "00", "P29_009": null}, "geometry": {"type": "Point", "coordinates": [137.3599501823681, 34.690236125759945]}}, {"type": "Feature", "properties": {"P29_001": "23207", "P29_002": "D123210001491", "P29_003": "16004", "P29_004": "愛知県立小坂井高等学校", "P29_005": "愛知県豊川市小坂井町欠田100-1", "P29_006": "2", "P29_007": "0", "P29_008": "00", "P29_009": null}, "geometry": {"type": "Point", "coordinates": [137.37273046779444, 34.7957209557944]}}, {"type": "Feature", "properties": {"P29_001": "23201", "P29_002": "D123210001507", "P29_003": "16004", "P29_004": "愛知県立豊橋西高等学校", "P29_005": "愛知県豊橋市牟呂町西明治新右前4", "P29_006": "2", "P29_007": "0", "P29_008": "00", "P29_009": null}, "geometry": {"type": "Point", "coordinates": [137.34244871911793, 34.76161895901042]}}, {"type": "Feature", "properties": {"P29_001": "23101", "P29_002": "D123210001516", "P29_003": "16004", "P29_004": "名古屋市立名古屋商業高等学校", "P29_005": "愛知県名古屋市千種区自由ヶ丘2-11-48", "P29_006": "3", "P29_007": "0", "P29_008": "00", "P29_009": null}, "geometry": {"type": "Point", "coordinates": [136.96535315595082, 35.17467959545789]}}, {"type": "Feature", "properties": {"P29_001": "23103", "P29_002": "D123210001543", "P29_003": "16004", "P29_004": "名古屋市立北高等学校", "P29_005": "愛知県名古屋市北区如来町50", "P29_006": "3", "P29_007": "0", "P29_008": "00", "P29_009": null}, "geometry": {"type": "Point", "coordinates": [136.9144754488381, 35.235726828748575]}}, {"type": "Feature", "properties": {"P29_001": "23106", "P29_002": "D123210001561", "P29_003": "16004", "P29_004": "名古屋市立中央高等学校", "P29_005": "愛知県名古屋市中区新栄3-15-45", "P29_006": "3", "P29_007": "0", "P29_008": "00", "P29_009": null}, "geometry": {"type": "Point", "coordinates": [136.92509725582687, 35.166878971548535]}}, {"type": "Feature", "properties": {"P29_001": "23110", "P29_002": "D123210001589", "P29_003": "16004", "P29_004": "名古屋市立工業高等学校", "P29_005": "愛知県名古屋市中川区北江町3-13", "P29_006": "3", "P29_007": "0", "P29_008": "00", "P29_009": null}, "geometry": {"type": "Point", "coordinates": [136.86555787582378, 35.12655827818566]}}, {"type": "Feature", "properties": {"P29_001": "23110", "P29_002": "D123210001598", "P29_003": "16004", "P29_004": "名古屋市立富田高等学校", "P29_005": "愛知県名古屋市中川区富田町大字榎津字上鵜垂111", "P29_006": "3", "P29_007": "0", "P29_008": "00", "P29_009": null}, "geometry": {"type": "Point", "coordinates": [136.82210104893844, 35.13877950158628]}}, {"type": "Feature", "properties": {"P29_001": "23112", "P29_002": "D123210001605", "P29_003": "16004", "P29_004": "名古屋市立桜台高等学校", "P29_005": "愛知県名古屋市南区霞町21", "P29_006": "3", "P29_007": "0", "P29_008": "00", "P29_009": null}, "geometry": {"type": "Point", "coordinates": [136.93979619609493, 35.10388759179204]}}, {"type": "Feature", "properties": {"P29_001": "23114", "P29_002": "D123210001614", "P29_003": "16004", "P29_004": "名古屋市立緑高等学校", "P29_005": "愛知県名古屋市緑区旭出1-1104", "P29_006": "3", "P29_007": "0", "P29_008": "00", "P29_009": null}, "geometry": {"type": "Point", "coordinates": [136.9660632096071, 35.08386374823546]}}, {"type": "Feature", "properties": {"P29_001": "23116", "P29_002": "D123210001623", "P29_003": "16004", "P29_004": "名古屋市立若宮商業高等学校", "P29_005": "愛知県名古屋市天白区古川町76", "P29_006": "3", "P29_007": "0", "P29_008": "00", "P29_009": null}, "geometry": {"type": "Point", "coordinates": [136.95075956063133, 35.10273804448568]}}, {"type": "Feature", "properties": {"P29_001": "23104", "P29_002": "D123210001632", "P29_003": "16004", "P29_004": "名古屋市立山田高等学校", "P29_005": "愛知県名古屋市西区二方町19-1", "P29_006": "3", "P29_007": "0", "P29_008": "00", "P29_009": null}, "geometry": {"type": "Point", "coordinates": [136.88026471386493, 35.22552169632049]}}, {"type": "Feature", "properties": {"P29_001": "23115", "P29_002": "D123210001641", "P29_003": "16004", "P29_004": "名古屋市立名東高等学校", "P29_005": "愛知県名古屋市名東区大針1-351", "P29_006": "3", "P29_007": "0", "P29_008": "00", "P29_009": null}, "geometry": {"type": "Point", "coordinates": [137.02146105186216, 35.15380538805361]}}, {"type": "Feature", "properties": {"P29_001": "23201", "P29_002": "D123210001650", "P29_003": "16004", "P29_004": "豊橋市立豊橋高等学校", "P29_005": "愛知県豊橋市東郷町43-1", "P29_006": "3", "P29_007": "0", "P29_008": "00", "P29_009": null}, "geometry": {"type": "Point", "coordinates": [137.41038737144774, 34.766947708375085]}}, {"type": "Feature", "properties": {"P29_001": "23101", "P29_002": "D123310000007", "P29_003": "16004", "P29_004": "愛知高等学校", "P29_005": "愛知県名古屋市千種区光が丘2-11-41", "P29_006": "4", "P29_007": "0", "P29_008": "00", "P29_009": null}, "geometry": {"type": "Point", "coordinates": [136.97823672208912, 35.18224513246833]}}, {"type": "Feature", "properties": {"P29_001": "23101", "P29_002": "D123310000034", "P29_003": "16004", "P29_004": "椙山女学園高等学校", "P29_005": "愛知県名古屋市千種区山添町2-2", "P29_006": "4", "P29_007": "0", "P29_008": "00", "P29_009": null}, "geometry": {"type": "Point", "coordinates": [136.95182714856526, 35.162087510328206]}}, {"type": "Feature", "properties": {"P29_001": "23102", "P29_002": "D123310000052", "P29_003": "16004", "P29_004": "東海高等学校", "P29_005": "愛知県名古屋市東区筒井1-2-35", "P29_006": "4", "P29_007": "0", "P29_008": "00", "P29_009": null}, "geometry": {"type": "Point", "coordinates": [136.93057321170642, 35.180136318642624]}}, {"type": "Feature", "properties": {"P29_001": "23102", "P29_002": "D123310000061", "P29_003": "16004", "P29_004": "金城学院高等学校", "P29_005": "愛知県名古屋市東区白壁4-64", "P29_006": "4", "P29_007": "0", "P29_008": "00", "P29_009": null}, "geometry": {"type": "Point", "coordinates": [136.91836194896086, 35.18264006138731]}}, {"type": "Feature", "properties": {"P29_001": "23102", "P29_002": "D123310000070", "P29_003": "16004", "P29_004": "名古屋高等学校", "P29_005": "愛知県名古屋市東区砂田橋2-1-58", "P29_006": "4", "P29_007": "0", "P29_008": "00", "P29_009": null}, "geometry": {"type": "Point", "coordinates": [136.95660968122988, 35.18963538684169]}}, {"type": "Feature", "properties": {"P29_001": "23104", "P29_002": "D123310000089", "P29_003": "16004", "P29_004": "啓明学館高等学校", "P29_005": "愛知県名古屋市西区新道1-23-15", "P29_006": "4", "P29_007": "0", "P29_008": "00", "P29_009": null}, "geometry": {"type": "Point", "coordinates": [136.88675468339642, 35.18218447879432]}}, {"type": "Feature", "properties": {"P29_001": "23230", "P29_002": "D123310000114", "P29_003": "16004", "P29_004": "中部大学第一高等学校", "P29_005": "愛知県日進市三本木町細廻間425", "P29_006": "4", "P29_007": "0", "P29_008": "00", "P29_009": null}, "geometry": {"type": "Point", "coordinates": [137.08736750450345, 35.142454078406544]}}, {"type": "Feature", "properties": {"P29_001": "23106", "P29_002": "D123310000123", "P29_003": "16004", "P29_004": "愛知産業大学工業高等学校", "P29_005": "愛知県名古屋市中区伊勢山1-2-29", "P29_006": "4", "P29_007": "0", "P29_008": "00", "P29_009": null}, "geometry": {"type": "Point", "coordinates": [136.90196110503598, 35.14996088632083]}}, {"type": "Feature", "properties": {"P29_001": "23107", "P29_002": "D123310000141", "P29_003": "16004", "P29_004": "名古屋工業高等学校", "P29_005": "愛知県名古屋市昭和区円上町22-38", "P29_006": "4", "P29_007": "0", "P29_008": "00", "P29_009": null}, "geometry": {"type": "Point", "coordinates": [136.91989967265494, 35.14136550412125]}}, {"type": "Feature", "properties": {"P29_001": "23107", "P29_002": "D123310000150", "P29_003": "16004", "P29_004": "桜花学園高等学校", "P29_005": "愛知県名古屋市昭和区緑町1-7", "P29_006": "4", "P29_007": "0", "P29_008": "00", "P29_009": null}, "geometry": {"type": "Point", "coordinates": [136.92837802134287, 35.151899931564266]}}, {"type": "Feature", "properties": {"P29_001": "23107", "P29_002": "D123310000169", "P29_003": "16004", "P29_004": "南山高等学校", "P29_005": "愛知県名古屋市昭和区五軒家町6", "P29_006": "4", "P29_007": "0", "P29_008": "00", "P29_009": null}, "geometry": {"type": "Point", "coordinates": [136.95141827077765, 35.14367103629522]}}, {"type": "Feature", "properties": {"P29_001": "23107", "P29_002": "D123310000178", "P29_003": "16004", "P29_004": "中京大学附属中京高等学校", "P29_005": "愛知県名古屋市昭和区川名山町122", "P29_006": "4", "P29_007": "0", "P29_008": "00", "P29_009": null}, "geometry": {"type": "Point", "coordinates": [136.95540505129065, 35.14647951406012]}}, {"type": "Feature", "properties": {"P29_001": "23107", "P29_002": "D123310000187", "P29_003": "16004", "P29_004": "名古屋国際高等学校", "P29_005": "愛知県名古屋市昭和区広路本町1-16", "P29_006": "4", "P29_007": "0", "P29_008": "00", "P29_009": null}, "geometry": {"type": "Point", "coordinates": [136.94000011399697, 35.14814799231698]}}, {"type": "Feature", "properties": {"P29_001": "23108", "P29_002": "D123310000196", "P29_003": "16004", "P29_004": "愛知みずほ大学瑞穂高等学校", "P29_005": "愛知県名古屋市瑞穂区春敲町2-13", "P29_006": "4", "P29_007": "0", "P29_008": "00", "P29_009": null}, "geometry": {"type": "Point", "coordinates": [136.92254215797897, 35.12731213335302]}}, {"type": "Feature", "properties": {"P29_001": "23108", "P29_002": "D123310000203", "P29_003": "16004", "P29_004": "名古屋女子大学高等学校", "P29_005": "愛知県名古屋市瑞穂区汐路町4-21", "P29_006": "4", "P29_007": "0", "P29_008": "00", "P29_009": null}, "geometry": {"type": "Point", "coordinates": [136.9402656520011, 35.12926612149565]}}, {"type": "Feature", "properties": {"P29_001": "23108", "P29_002": "D123310000212", "P29_003": "16004", "P29_004": "名古屋大谷高等学校", "P29_005": "愛知県名古屋市瑞穂区高田町4-19", "P29_006": "4", "P29_007": "0", "P29_008": "00", "P29_009": null}, "geometry": {"type": "Point", "coordinates": [136.93136829869752, 35.13400343518974]}}, {"type": "Feature", "properties": {"P29_001": "23108", "P29_002": "D123310000221", "P29_003": "16004", "P29_004": "享栄高等学校", "P29_005": "愛知県名古屋市瑞穂区汐路町1-26", "P29_006": "4", "P29_007": "0", "P29_008": "00", "P29_009": null}, "geometry": {"type": "Point", "coordinates": [136.93809699670325, 35.13639071267092]}}, {"type": "Feature", "properties": {"P29_001": "23113", "P29_002": "D123310000258", "P29_003": "16004", "P29_004": "菊華高等学校", "P29_005": "愛知県名古屋市守山区小幡5-8-13", "P29_006": "4", "P29_007": "0", "P29_008": "00", "P29_009": null}, "geometry": {"type": "Point", "coordinates": [136.9818025233885, 35.20332342771248]}}, {"type": "Feature", "properties": {"P29_001": "23115", "P29_002": "D123310000267", "P29_003": "16004", "P29_004": "東邦高等学校", "P29_005": "愛知県名古屋市名東区平和が丘3-11", "P29_006": "4", "P29_007": "0", "P29_008": "00", "P29_009": null}, "geometry": {"type": "Point", "coordinates": [136.9860093337475, 35.171140330368736]}}, {"type": "Feature", "properties": {"P29_001": "23446", "P29_002": "D123310000276", "P29_003": "16004", "P29_004": "日本福祉大学付属高等学校", "P29_005": "愛知県知多郡美浜町奥田中之谷2-1", "P29_006": "4", "P29_007": "0", "P29_008": "00", "P29_009": null}, "geometry": {"type": "Point", "coordinates": [136.86886807218502, 34.78556112443519]}}, {"type": "Feature", "properties": {"P29_001": "23116", "P29_002": "D123310000285", "P29_003": "16004", "P29_004": "東海学園高等学校", "P29_005": "愛知県名古屋市天白区中平2-901", "P29_006": "4", "P29_007": "0", "P29_008": "00", "P29_009": null}, "geometry": {"type": "Point", "coordinates": [136.9967989052975, 35.11815885929689]}}, {"type": "Feature", "properties": {"P29_001": "23204", "P29_002": "D123310000310", "P29_003": "16004", "P29_004": "聖カピタニオ女子高等学校", "P29_005": "愛知県瀬戸市西長根町137", "P29_006": "4", "P29_007": "0", "P29_008": "00", "P29_009": null}, "geometry": {"type": "Point", "coordinates": [137.07332372415996, 35.21242812660647]}}, {"type": "Feature", "properties": {"P29_001": "23206", "P29_002": "D123310000329", "P29_003": "16004", "P29_004": "中部大学春日丘高等学校", "P29_005": "愛知県春日井市松本町1105", "P29_006": "4", "P29_007": "0", "P29_008": "00", "P29_009": null}, "geometry": {"type": "Point", "coordinates": [137.01564616942065, 35.277935511524504]}}, {"type": "Feature", "properties": {"P29_001": "23232", "P29_002": "D123310000338", "P29_003": "16004", "P29_004": "清林館高等学校", "P29_005": "愛知県愛西市持中町八町88", "P29_006": "4", "P29_007": "0", "P29_008": "00", "P29_009": null}, "geometry": {"type": "Point", "coordinates": [136.73981075532606, 35.18308157641443]}}, {"type": "Feature", "properties": {"P29_001": "23217", "P29_002": "D123310000347", "P29_003": "16004", "P29_004": "滝高等学校", "P29_005": "愛知県江南市東野町米野1", "P29_006": "4", "P29_007": "0", "P29_008": "00", "P29_009": null}, "geometry": {"type": "Point", "coordinates": [136.85594947151444, 35.33538147095088]}}, {"type": "Feature", "properties": {"P29_001": "23220", "P29_002": "D123310000356", "P29_003": "16004", "P29_004": "愛知啓成高等学校", "P29_005": "愛知県稲沢市西町1-1-41", "P29_006": "4", "P29_007": "0", "P29_008": "00", "P29_009": null}, "geometry": {"type": "Point", "coordinates": [136.7870068765508, 35.25539189987094]}}, {"type": "Feature", "properties": {"P29_001": "23362", "P29_002": "D123310000374", "P29_003": "16004", "P29_004": "誠信高等学校", "P29_005": "愛知県丹羽郡扶桑町大字斉藤字本新須1", "P29_006": "4", "P29_007": "0", "P29_008": "00", "P29_009": null}, "geometry": {"type": "Point", "coordinates": [136.90006464462547, 35.35958529142524]}}, {"type": "Feature", "properties": {"P29_001": "23219", "P29_002": "D123310000392", "P29_003": "16004", "P29_004": "誉高等学校", "P29_005": "愛知県小牧市本庄郷浦2613-2", "P29_006": "4", "P29_007": "0", "P29_008": "00", "P29_009": null}, "geometry": {"type": "Point", "coordinates": [136.96026131543024, 35.31506916508003]}}, {"type": "Feature", "properties": {"P29_001": "23238", "P29_002": "D123310000409", "P29_003": "16004", "P29_004": "栄徳高等学校", "P29_005": "愛知県長久手市岩作三ヶ峯1-32", "P29_006": "4", "P29_007": "0", "P29_008": "00", "P29_009": null}, "geometry": {"type": "Point", "coordinates": [137.06206987204956, 35.16907331001282]}}, {"type": "Feature", "properties": {"P29_001": "23203", "P29_002": "D123310000418", "P29_003": "16004", "P29_004": "大成高等学校", "P29_005": "愛知県一宮市千秋町小山字大福田1878-2", "P29_006": "4", "P29_007": "0", "P29_008": "00", "P29_009": null}, "geometry": {"type": "Point", "coordinates": [136.8486692102032, 35.29277705144926]}}, {"type": "Feature", "properties": {"P29_001": "23202", "P29_002": "D123310000427", "P29_003": "16004", "P29_004": "人間環境大学附属岡崎高等学校", "P29_005": "愛知県岡崎市稲熊町3-110", "P29_006": "4", "P29_007": "0", "P29_008": "00", "P29_009": null}, "geometry": {"type": "Point", "coordinates": [137.17395677519747, 34.96694492796805]}}, {"type": "Feature", "properties": {"P29_001": "23202", "P29_002": "D123310000436", "P29_003": "16004", "P29_004": "光ヶ丘女子高等学校", "P29_005": "愛知県岡崎市大西町奥長入52", "P29_006": "4", "P29_007": "0", "P29_008": "00", "P29_009": null}, "geometry": {"type": "Point", "coordinates": [137.17985698221398, 34.932175415109704]}}, {"type": "Feature", "properties": {"P29_001": "23212", "P29_002": "D123310000454", "P29_003": "16004", "P29_004": "安城学園高等学校", "P29_005": "愛知県安城市小堤町4-25", "P29_006": "4", "P29_007": "0", "P29_008": "00", "P29_009": null}, "geometry": {"type": "Point", "coordinates": [137.08134755163422, 34.95468658362688]}}, {"type": "Feature", "properties": {"P29_001": "23221", "P29_002": "D123310000506", "P29_003": "16004", "P29_004": "黄柳野高等学校", "P29_005": "愛知県新城市黄柳野字池田663-1", "P29_006": "4", "P29_007": "0", "P29_008": "00", "P29_009": null}, "geometry": {"type": "Point", "coordinates": [137.58483119094467, 34.87628804035715]}}, {"type": "Feature", "properties": {"P29_001": "23211", "P29_002": "D123310000515", "P29_003": "16004", "P29_004": "ルネサンス豊田高等学校", "P29_005": "愛知県豊田市藤沢町丸竹182", "P29_006": "4", "P29_007": "0", "P29_008": "00", "P29_009": null}, "geometry": {"type": "Point", "coordinates": [137.25303686179447, 35.16659913933455]}}, {"type": "Feature", "properties": {"P29_001": "23201", "P29_002": "D123310000524", "P29_003": "16004", "P29_004": "桜丘高等学校", "P29_005": "愛知県豊橋市南牛川2-1-11", "P29_006": "4", "P29_007": "0", "P29_008": "00", "P29_009": null}, "geometry": {"type": "Point", "coordinates": [137.41766683918075, 34.77450586594995]}}, {"type": "Feature", "properties": {"P29_001": "23201", "P29_002": "D123310000533", "P29_003": "16004", "P29_004": "藤ノ花女子高等学校", "P29_005": "愛知県豊橋市老松町109", "P29_006": "4", "P29_007": "0", "P29_008": "00", "P29_009": null}, "geometry": {"type": "Point", "coordinates": [137.40895195229004, 34.76372889819547]}}, {"type": "Feature", "properties": {"P29_001": "23201", "P29_002": "D123310000542", "P29_003": "16004", "P29_004": "豊橋中央高等学校", "P29_005": "愛知県豊橋市鍵田町106", "P29_006": "4", "P29_007": "0", "P29_008": "00", "P29_009": null}, "geometry": {"type": "Point", "coordinates": [137.39186392454835, 34.75127711123013]}}, {"type": "Feature", "properties": {"P29_001": "23207", "P29_002": "D123310000551", "P29_003": "16004", "P29_004": "豊川高等学校", "P29_005": "愛知県豊川市末広通1-37", "P29_006": "4", "P29_007": "0", "P29_008": "00", "P29_009": null}, "geometry": {"type": "Point", "coordinates": [137.3864651231449, 34.82563289138099]}}, {"type": "Feature", "properties": {"P29_001": "23102", "P29_002": "D123210000009", "P29_003": "16004", "P29_004": "愛知県立明和高等学校", "P29_005": "愛知県名古屋市東区白壁2-32-6", "P29_006": "2", "P29_007": "0", "P29_008": "00", "P29_009": null}, "geometry": {"type": "Point", "coordinates": [136.9096200942625, 35.18380468177353]}}, {"type": "Feature", "properties": {"P29_001": "23105", "P29_002": "D123210000036", "P29_003": "16004", "P29_004": "愛知県立中村高等学校", "P29_005": "愛知県名古屋市中村区菊水町1-2-18", "P29_006": "2", "P29_007": "0", "P29_008": "00", "P29_009": null}, "geometry": {"type": "Point", "coordinates": [136.85120968368122, 35.178994732581735]}}, {"type": "Feature", "properties": {"P29_001": "23108", "P29_002": "D123210000072", "P29_003": "16004", "P29_004": "愛知県立瑞陵高等学校", "P29_005": "愛知県名古屋市瑞穂区北原町2-1", "P29_006": "2", "P29_007": "0", "P29_008": "00", "P29_009": null}, "geometry": {"type": "Point", "coordinates": [136.93045607030132, 35.13252096404596]}}, {"type": "Feature", "properties": {"P29_001": "23102", "P29_002": "D123210000107", "P29_003": "16004", "P29_004": "愛知県立愛知商業高等学校", "P29_005": "愛知県名古屋市東区徳川1-12-1", "P29_006": "2", "P29_007": "0", "P29_008": "00", "P29_009": null}, "geometry": {"type": "Point", "coordinates": [136.92538139410578, 35.17982652689043]}}, {"type": "Feature", "properties": {"P29_001": "23110", "P29_002": "D123210000116", "P29_003": "16004", "P29_004": "愛知県立中川青和高等学校", "P29_005": "愛知県名古屋市中川区野田3-280", "P29_006": "2", "P29_007": "0", "P29_008": "00", "P29_009": null}, "geometry": {"type": "Point", "coordinates": [136.83953036331735, 35.143036739614566]}}, {"type": "Feature", "properties": {"P29_001": "23113", "P29_002": "D123210000125", "P29_003": "16004", "P29_004": "愛知県立緑丘高等学校", "P29_005": "愛知県名古屋市守山区緑ヶ丘1008", "P29_006": "2", "P29_007": "0", "P29_008": "00", "P29_009": null}, "geometry": {"type": "Point", "coordinates": [136.98546135763857, 35.2118929252817]}}, {"type": "Feature", "properties": {"P29_001": "23102", "P29_002": "D123210000143", "P29_003": "16004", "P29_004": "愛知県立旭陵高等学校", "P29_005": "愛知県名古屋市東区出来町3-6-23", "P29_006": "2", "P29_007": "0", "P29_008": "00", "P29_009": null}, "geometry": {"type": "Point", "coordinates": [136.93963591621915, 35.18380083288534]}}, {"type": "Feature", "properties": {"P29_001": "23204", "P29_002": "D123210000161", "P29_003": "16004", "P29_004": "愛知県立瀬戸工科高等学校", "P29_005": "愛知県瀬戸市東権現町22-1", "P29_006": "2", "P29_007": "0", "P29_008": "00", "P29_009": null}, "geometry": {"type": "Point", "coordinates": [137.0951132785048, 35.22127310879182]}}, {"type": "Feature", "properties": {"P29_001": "23111", "P29_002": "D123210000223", "P29_003": "16004", "P29_004": "愛知県立南陽高等学校", "P29_005": "愛知県名古屋市港区大西2-99", "P29_006": "2", "P29_007": "0", "P29_008": "00", "P29_009": null}, "geometry": {"type": "Point", "coordinates": [136.81123849315298, 35.1091953008178]}}, {"type": "Feature", "properties": {"P29_001": "23229", "P29_002": "D123210000269", "P29_003": "16004", "P29_004": "愛知県立豊明高等学校", "P29_005": "愛知県豊明市沓掛町海老池10", "P29_006": "2", "P29_007": "0", "P29_008": "00", "P29_009": null}, "geometry": {"type": "Point", "coordinates": [137.02537507831246, 35.07082665519756]}}, {"type": "Feature", "properties": {"P29_001": "23112", "P29_002": "D123210000349", "P29_003": "16004", "P29_004": "愛知県立名古屋南高等学校", "P29_005": "愛知県名古屋市南区東又兵ヱ町5-1-11", "P29_006": "2", "P29_007": "0", "P29_008": "00", "P29_009": null}, "geometry": {"type": "Point", "coordinates": [136.92175878566687, 35.09557353509065]}}, {"type": "Feature", "properties": {"P29_001": "23101", "P29_002": "D123210000376", "P29_003": "16004", "P29_004": "愛知県立愛知総合工科高等学校", "P29_005": "愛知県名古屋市千種区星が丘山手107", "P29_006": "2", "P29_007": "0", "P29_008": "00", "P29_009": null}, "geometry": {"type": "Point", "coordinates": [136.98042337872536, 35.16170875881266]}}, {"type": "Feature", "properties": {"P29_001": "23219", "P29_002": "D123210000394", "P29_003": "16004", "P29_004": "愛知県立小牧高等学校", "P29_005": "愛知県小牧市小牧1-321", "P29_006": "2", "P29_007": "0", "P29_008": "00", "P29_009": null}, "geometry": {"type": "Point", "coordinates": [136.9186220403492, 35.29292847593335]}}, {"type": "Feature", "properties": {"P29_001": "23217", "P29_002": "D123210000410", "P29_003": "16004", "P29_004": "愛知県立古知野高等学校", "P29_005": "愛知県江南市古知野町高瀬1", "P29_006": "2", "P29_007": "0", "P29_008": "00", "P29_009": null}, "geometry": {"type": "Point", "coordinates": [136.86636576347937, 35.34468221130231]}}, {"type": "Feature", "properties": {"P29_001": "23228", "P29_002": "D123210000447", "P29_003": "16004", "P29_004": "愛知県立岩倉総合高等学校", "P29_005": "愛知県岩倉市北島町川田1", "P29_006": "2", "P29_007": "0", "P29_008": "00", "P29_009": null}, "geometry": {"type": "Point", "coordinates": [136.85406664907117, 35.2777315379183]}}, {"type": "Feature", "properties": {"P29_001": "23215", "P29_002": "D123210000465", "P29_003": "16004", "P29_004": "愛知県立犬山総合高等学校", "P29_005": "愛知県犬山市字蓮池2-21", "P29_006": "2", "P29_007": "0", "P29_008": "00", "P29_009": null}, "geometry": {"type": "Point", "coordinates": [136.96200266208672, 35.32271373534213]}}, {"type": "Feature", "properties": {"P29_001": "23217", "P29_002": "D123210000474", "P29_003": "16004", "P29_004": "愛知県立江南高等学校", "P29_005": "愛知県江南市北野町川石25-2", "P29_006": "2", "P29_007": "0", "P29_008": "00", "P29_009": null}, "geometry": {"type": "Point", "coordinates": [136.87762887842862, 35.33471128568368]}}, {"type": "Feature", "properties": {"P29_001": "23219", "P29_002": "D123210000483", "P29_003": "16004", "P29_004": "愛知県立小牧南高等学校", "P29_005": "愛知県小牧市小木東2-183", "P29_006": "2", "P29_007": "0", "P29_008": "00", "P29_009": null}, "geometry": {"type": "Point", "coordinates": [136.90216513107282, 35.27658438799415]}}, {"type": "Feature", "properties": {"P29_001": "23220", "P29_002": "D123210000562", "P29_003": "16004", "P29_004": "愛知県立稲沢東高等学校", "P29_005": "愛知県稲沢市大塚南6-33", "P29_006": "2", "P29_007": "0", "P29_008": "00", "P29_009": null}, "geometry": {"type": "Point", "coordinates": [136.79905687375032, 35.23568302582347]}}, {"type": "Feature", "properties": {"P29_001": "23203", "P29_002": "D123210000571", "P29_003": "16004", "P29_004": "愛知県立一宮北高等学校", "P29_005": "愛知県一宮市笹野字氏神東1", "P29_006": "2", "P29_007": "0", "P29_008": "00", "P29_009": null}, "geometry": {"type": "Point", "coordinates": [136.81184254981778, 35.34974311875987]}}, {"type": "Feature", "properties": {"P29_001": "23237", "P29_002": "D123210000704", "P29_003": "16004", "P29_004": "愛知県立美和高等学校", "P29_005": "愛知県あま市篠田五ツ藤1", "P29_006": "2", "P29_007": "0", "P29_008": "00", "P29_009": null}, "geometry": {"type": "Point", "coordinates": [136.7939380323093, 35.182644988560696]}}, {"type": "Feature", "properties": {"P29_001": "23205", "P29_002": "D123210000722", "P29_003": "16004", "P29_004": "愛知県立半田高等学校", "P29_005": "愛知県半田市出口町1-30", "P29_006": "2", "P29_007": "0", "P29_008": "00", "P29_009": null}, "geometry": {"type": "Point", "coordinates": [136.92143164164497, 34.902578637784444]}}, {"type": "Feature", "properties": {"P29_001": "23205", "P29_002": "D123210000759", "P29_003": "16004", "P29_004": "愛知県立半田農業高等学校", "P29_005": "愛知県半田市柊町1-1", "P29_006": "2", "P29_007": "0", "P29_008": "00", "P29_009": null}, "geometry": {"type": "Point", "coordinates": [136.91857549291285, 34.901848287571134]}}, {"type": "Feature", "properties": {"P29_001": "23223", "P29_002": "D123210000768", "P29_003": "16004", "P29_004": "愛知県立大府高等学校", "P29_005": "愛知県大府市月見町6-180", "P29_006": "2", "P29_007": "0", "P29_008": "00", "P29_009": null}, "geometry": {"type": "Point", "coordinates": [136.95810024569528, 35.003181324294886]}}, {"type": "Feature", "properties": {"P29_001": "23224", "P29_002": "D123210000875", "P29_003": "16004", "P29_004": "愛知県立知多翔洋高等学校", "P29_005": "愛知県知多市八幡字堂ヶ島50-1", "P29_006": "2", "P29_007": "0", "P29_008": "00", "P29_009": null}, "geometry": {"type": "Point", "coordinates": [136.88305308328694, 34.985070621103404]}}, {"type": "Feature", "properties": {"P29_001": "23216", "P29_002": "D123210000884", "P29_003": "16004", "P29_004": "愛知県立常滑高等学校", "P29_005": "愛知県常滑市金山四井池10", "P29_006": "2", "P29_007": "0", "P29_008": "00", "P29_009": null}, "geometry": {"type": "Point", "coordinates": [136.83956664644072, 34.91398631385338]}}, {"type": "Feature", "properties": {"P29_001": "23202", "P29_002": "D123210000900", "P29_003": "16004", "P29_004": "愛知県立岡崎北高等学校", "P29_005": "愛知県岡崎市石神町17-1", "P29_006": "2", "P29_007": "0", "P29_008": "00", "P29_009": null}, "geometry": {"type": "Point", "coordinates": [137.17743776089847, 34.971542074064715]}}, {"type": "Feature", "properties": {"P29_001": "23202", "P29_002": "D123210000919", "P29_003": "16004", "P29_004": "愛知県立岩津高等学校", "P29_005": "愛知県岡崎市東蔵前町馬場5", "P29_006": "2", "P29_007": "0", "P29_008": "00", "P29_009": null}, "geometry": {"type": "Point", "coordinates": [137.1742858797656, 34.99975289415029]}}, {"type": "Feature", "properties": {"P29_001": "23202", "P29_002": "D123210000982", "P29_003": "16004", "P29_004": "愛知県立岡崎東高等学校", "P29_005": "愛知県岡崎市竜泉寺町後山27", "P29_006": "2", "P29_007": "0", "P29_008": "00", "P29_009": null}, "geometry": {"type": "Point", "coordinates": [137.20889387848757, 34.912217474699105]}}, {"type": "Feature", "properties": {"P29_001": "23213", "P29_002": "D123210000991", "P29_003": "16004", "P29_004": "愛知県立西尾東高等学校", "P29_005": "愛知県西尾市小島町大郷1-4", "P29_006": "2", "P29_007": "0", "P29_008": "00", "P29_009": null}, "geometry": {"type": "Point", "coordinates": [137.0850139246017, 34.884617138987835]}}, {"type": "Feature", "properties": {"P29_001": "23210", "P29_002": "D123210001026", "P29_003": "16004", "P29_004": "愛知県立刈谷工科高等学校", "P29_005": "愛知県刈谷市矢場町2-210", "P29_006": "2", "P29_007": "0", "P29_008": "00", "P29_009": null}, "geometry": {"type": "Point", "coordinates": [136.99805779030845, 34.99684440523573]}}, {"type": "Feature", "properties": {"P29_001": "23212", "P29_002": "D123210001071", "P29_003": "16004", "P29_004": "愛知県立安城高等学校", "P29_005": "愛知県安城市赤松町大北103", "P29_006": "2", "P29_007": "0", "P29_008": "00", "P29_009": null}, "geometry": {"type": "Point", "coordinates": [137.07023249587297, 34.94750432407503]}}, {"type": "Feature", "properties": {"P29_001": "23212", "P29_002": "D123210001080", "P29_003": "16004", "P29_004": "愛知県立安城農林高等学校", "P29_005": "愛知県安城市池浦町茶筅木1", "P29_006": "2", "P29_007": "0", "P29_008": "00", "P29_009": null}, "geometry": {"type": "Point", "coordinates": [137.0790804464877, 34.96836038406072]}}, {"type": "Feature", "properties": {"P29_001": "23212", "P29_002": "D123210001124", "P29_003": "16004", "P29_004": "愛知県立安城東高等学校", "P29_005": "愛知県安城市北山崎町大土塚10", "P29_006": "2", "P29_007": "0", "P29_008": "00", "P29_009": null}, "geometry": {"type": "Point", "coordinates": [137.10290797629844, 34.9658123246443]}}, {"type": "Feature", "properties": {"P29_001": "23225", "P29_002": "D123210001142", "P29_003": "16004", "P29_004": "愛知県立知立東高等学校", "P29_005": "愛知県知立市長篠町大山18-6", "P29_006": "2", "P29_007": "0", "P29_008": "00", "P29_009": null}, "geometry": {"type": "Point", "coordinates": [137.051932636398, 34.99582862521175]}}, {"type": "Feature", "properties": {"P29_001": "23211", "P29_002": "D123210001151", "P29_003": "16004", "P29_004": "愛知県立豊田西高等学校", "P29_005": "愛知県豊田市小坂町14-65", "P29_006": "2", "P29_007": "0", "P29_008": "00", "P29_009": null}, "geometry": {"type": "Point", "coordinates": [137.14357448085462, 35.08206914748108]}}, {"type": "Feature", "properties": {"P29_001": "23211", "P29_002": "D123210001160", "P29_003": "16004", "P29_004": "愛知県立豊田東高等学校", "P29_005": "愛知県豊田市御立町11-1", "P29_006": "2", "P29_007": "0", "P29_008": "00", "P29_009": null}, "geometry": {"type": "Point", "coordinates": [137.17143849517666, 35.077167602233736]}}, {"type": "Feature", "properties": {"P29_001": "23211", "P29_002": "D123210001179", "P29_003": "16004", "P29_004": "愛知県立猿投農林高等学校", "P29_005": "愛知県豊田市井上町12-179", "P29_006": "2", "P29_007": "0", "P29_008": "00", "P29_009": null}, "geometry": {"type": "Point", "coordinates": [137.17362404748675, 35.12105668444504]}}, {"type": "Feature", "properties": {"P29_001": "23211", "P29_002": "D123210001197", "P29_003": "16004", "P29_004": "愛知県立加茂丘高等学校", "P29_005": "愛知県豊田市藤岡飯野町太田代1137-30", "P29_006": "2", "P29_007": "0", "P29_008": "00", "P29_009": null}, "geometry": {"type": "Point", "coordinates": [137.22364301905998, 35.195625940823]}}, {"type": "Feature", "properties": {"P29_001": "23211", "P29_002": "D123210001231", "P29_003": "16004", "P29_004": "愛知県立豊田南高等学校", "P29_005": "愛知県豊田市若林東町中外根1-1", "P29_006": "2", "P29_007": "0", "P29_008": "00", "P29_009": null}, "geometry": {"type": "Point", "coordinates": [137.10234425025422, 35.021125326470106]}}, {"type": "Feature", "properties": {"P29_001": "23211", "P29_002": "D123210001259", "P29_003": "16004", "P29_004": "愛知県立豊野高等学校", "P29_005": "愛知県豊田市渡刈町3-3-1", "P29_006": "2", "P29_007": "0", "P29_008": "00", "P29_009": null}, "geometry": {"type": "Point", "coordinates": [137.15681088388186, 35.03731545494145]}}, {"type": "Feature", "properties": {"P29_001": "23231", "P29_002": "D123210001357", "P29_003": "16004", "P29_004": "愛知県立成章高等学校", "P29_005": "愛知県田原市田原町池ノ原1", "P29_006": "2", "P29_007": "0", "P29_008": "00", "P29_009": null}, "geometry": {"type": "Point", "coordinates": [137.26343624311727, 34.67377371125732]}}, {"type": "Feature", "properties": {"P29_001": "23231", "P29_002": "D123210001375", "P29_003": "16004", "P29_004": "愛知県立福江高等学校", "P29_005": "愛知県田原市古田町岡ノ越6", "P29_006": "2", "P29_007": "0", "P29_008": "00", "P29_009": null}, "geometry": {"type": "Point", "coordinates": [137.10623754870437, 34.62167151429233]}}, {"type": "Feature", "properties": {"P29_001": "23207", "P29_002": "D123210001446", "P29_003": "16004", "P29_004": "愛知県立豊川工科高等学校", "P29_005": "愛知県豊川市新道町1-3", "P29_006": "2", "P29_007": "0", "P29_008": "00", "P29_009": null}, "geometry": {"type": "Point", "coordinates": [137.3652967595212, 34.82381491806784]}}, {"type": "Feature", "properties": {"P29_001": "23101", "P29_002": "D123210001525", "P29_003": "16004", "P29_004": "名古屋市立菊里高等学校", "P29_005": "愛知県名古屋市千種区星が丘元町13-7", "P29_006": "3", "P29_007": "0", "P29_008": "00", "P29_009": null}, "geometry": {"type": "Point", "coordinates": [136.98506988763646, 35.15907510453659]}}, {"type": "Feature", "properties": {"P29_001": "23102", "P29_002": "D123210001534", "P29_003": "16004", "P29_004": "名古屋市立工芸高等学校", "P29_005": "愛知県名古屋市東区芳野2-7-51", "P29_006": "3", "P29_007": "0", "P29_008": "00", "P29_009": null}, "geometry": {"type": "Point", "coordinates": [136.9225010194272, 35.18727164658384]}}, {"type": "Feature", "properties": {"P29_001": "23104", "P29_002": "D123210001552", "P29_003": "16004", "P29_004": "名古屋市立西陵高等学校", "P29_005": "愛知県名古屋市西区児玉2-20-65", "P29_006": "3", "P29_007": "0", "P29_008": "00", "P29_009": null}, "geometry": {"type": "Point", "coordinates": [136.8850055896644, 35.195984561913235]}}, {"type": "Feature", "properties": {"P29_001": "23107", "P29_002": "D123210001570", "P29_003": "16004", "P29_004": "名古屋市立向陽高等学校", "P29_005": "愛知県名古屋市昭和区広池町47", "P29_006": "3", "P29_007": "0", "P29_008": "00", "P29_009": null}, "geometry": {"type": "Point", "coordinates": [136.92880492257342, 35.14324069911628]}}, {"type": "Feature", "properties": {"P29_001": "23220", "P29_002": "D123210001669", "P29_003": "16004", "P29_004": "稲沢緑風館高等学校", "P29_005": "愛知県稲沢市平野町加世11", "P29_006": "3", "P29_007": "0", "P29_008": "00", "P29_009": null}, "geometry": {"type": "Point", "coordinates": [136.78607731042158, 35.24053355012167]}}, {"type": "Feature", "properties": {"P29_001": "23101", "P29_002": "D123310000016", "P29_003": "16004", "P29_004": "愛知工業大学名電高等学校", "P29_005": "愛知県名古屋市千種区若水3-2-12", "P29_006": "4", "P29_007": "0", "P29_008": "00", "P29_009": null}, "geometry": {"type": "Point", "coordinates": [136.94919430137304, 35.17820688212471]}}, {"type": "Feature", "properties": {"P29_001": "23101", "P29_002": "D123310000025", "P29_003": "16004", "P29_004": "愛知淑徳高等学校", "P29_005": "愛知県名古屋市千種区桜が丘23", "P29_006": "4", "P29_007": "0", "P29_008": "00", "P29_009": null}, "geometry": {"type": "Point", "coordinates": [136.9879788623319, 35.16653114847098]}}, {"type": "Feature", "properties": {"P29_001": "23101", "P29_002": "D123310000043", "P29_003": "16004", "P29_004": "名古屋経済大学市邨高等学校", "P29_005": "愛知県名古屋市千種区北千種3-1-37", "P29_006": "4", "P29_007": "0", "P29_008": "00", "P29_009": null}, "geometry": {"type": "Point", "coordinates": [136.94486167697215, 35.178845712582905]}}, {"type": "Feature", "properties": {"P29_001": "23105", "P29_002": "D123310000098", "P29_003": "16004", "P29_004": "名城大学附属高等学校", "P29_005": "愛知県名古屋市中村区新富町1-3-16", "P29_006": "4", "P29_007": "0", "P29_008": "00", "P29_009": null}, "geometry": {"type": "Point", "coordinates": [136.86681449791982, 35.18848593424388]}}, {"type": "Feature", "properties": {"P29_001": "23105", "P29_002": "D123310000105", "P29_003": "16004", "P29_004": "同朋高等学校", "P29_005": "愛知県名古屋市中村区稲葉地町7-1", "P29_006": "4", "P29_007": "0", "P29_008": "00", "P29_009": null}, "geometry": {"type": "Point", "coordinates": [136.84304492531427, 35.16332674543372]}}, {"type": "Feature", "properties": {"P29_001": "23102", "P29_002": "D123310000132", "P29_003": "16004", "P29_004": "至学館高等学校", "P29_005": "愛知県名古屋市東区大幸南2-1-10", "P29_006": "4", "P29_007": "0", "P29_008": "00", "P29_009": null}, "geometry": {"type": "Point", "coordinates": [136.95194518782347, 35.187035185576846]}}, {"type": "Feature", "properties": {"P29_001": "23108", "P29_002": "D123310000230", "P29_003": "16004", "P29_004": "名古屋経済大学高蔵高等学校", "P29_005": "愛知県名古屋市瑞穂区高田町3-28-1", "P29_006": "4", "P29_007": "0", "P29_008": "00", "P29_009": null}, "geometry": {"type": "Point", "coordinates": [136.92814704408394, 35.13401776006393]}}, {"type": "Feature", "properties": {"P29_001": "23112", "P29_002": "D123310000249", "P29_003": "16004", "P29_004": "大同大学大同高等学校", "P29_005": "愛知県名古屋市南区大同町2-21", "P29_006": "4", "P29_007": "0", "P29_008": "00", "P29_009": null}, "geometry": {"type": "Point", "coordinates": [136.91013885689443, 35.08078616740084]}}, {"type": "Feature", "properties": {"P29_001": "23203", "P29_002": "D123310000294", "P29_003": "16004", "P29_004": "修文学院高等学校", "P29_005": "愛知県一宮市日光町6-1", "P29_006": "4", "P29_007": "0", "P29_008": "00", "P29_009": null}, "geometry": {"type": "Point", "coordinates": [136.78104144389906, 35.30184910528616]}}, {"type": "Feature", "properties": {"P29_001": "23204", "P29_002": "D123310000301", "P29_003": "16004", "P29_004": "聖霊高等学校", "P29_005": "愛知県瀬戸市せいれい町2", "P29_006": "4", "P29_007": "0", "P29_008": "00", "P29_009": null}, "geometry": {"type": "Point", "coordinates": [137.10843028441698, 35.20556146604729]}}, {"type": "Feature", "properties": {"P29_001": "23229", "P29_002": "D123310000365", "P29_003": "16004", "P29_004": "星城高等学校", "P29_005": "愛知県豊明市栄町新左山20", "P29_006": "4", "P29_007": "0", "P29_008": "00", "P29_009": null}, "geometry": {"type": "Point", "coordinates": [136.98705272805918, 35.044870166604454]}}, {"type": "Feature", "properties": {"P29_001": "23235", "P29_002": "D123310000383", "P29_003": "16004", "P29_004": "愛知黎明高等学校", "P29_005": "愛知県弥富市稲吉2-52", "P29_006": "4", "P29_007": "0", "P29_008": "00", "P29_009": null}, "geometry": {"type": "Point", "coordinates": [136.75894141091885, 35.07960496911533]}}, {"type": "Feature", "properties": {"P29_001": "23202", "P29_002": "D123310000445", "P29_003": "16004", "P29_004": "岡崎城西高等学校", "P29_005": "愛知県岡崎市中園町川成98", "P29_006": "4", "P29_007": "0", "P29_008": "00", "P29_009": null}, "geometry": {"type": "Point", "coordinates": [137.14350453915523, 34.970729500852094]}}, {"type": "Feature", "properties": {"P29_001": "23211", "P29_002": "D123310000463", "P29_003": "16004", "P29_004": "杜若高等学校", "P29_005": "愛知県豊田市平戸橋町波岩87-1", "P29_006": "4", "P29_007": "0", "P29_008": "00", "P29_009": null}, "geometry": {"type": "Point", "coordinates": [137.19478029481206, 35.12413958159847]}}, {"type": "Feature", "properties": {"P29_001": "23202", "P29_002": "D123310000472", "P29_003": "16004", "P29_004": "愛知産業大学三河高等学校", "P29_005": "愛知県岡崎市岡町原山12-10", "P29_006": "4", "P29_007": "0", "P29_008": "00", "P29_009": null}, "geometry": {"type": "Point", "coordinates": [137.220068795327, 34.921508072613975]}}, {"type": "Feature", "properties": {"P29_001": "23211", "P29_002": "D123310000481", "P29_003": "16004", "P29_004": "豊田大谷高等学校", "P29_005": "愛知県豊田市保見町南山1", "P29_006": "4", "P29_007": "0", "P29_008": "00", "P29_009": null}, "geometry": {"type": "Point", "coordinates": [137.13399639819397, 35.12843973327702]}}, {"type": "Feature", "properties": {"P29_001": "23230", "P29_002": "D123310000561", "P29_003": "16004", "P29_004": "国際高等学校", "P29_005": "愛知県日進市米野木町三ヶ峯4-4", "P29_006": "4", "P29_007": "0", "P29_008": "00", "P29_009": null}, "geometry": {"type": "Point", "coordinates": [137.09508685128364, 35.15115450186439]}}]}