{"type": "FeatureCollection", "crs": {"type": "name", "properties": {"name": "urn:ogc:def:crs:EPSG::6668"}}, "features": [{"type": "Feature", "properties": {"P29_001": "23101", "P29_002": "F123110106429", "P29_003": "16007", "P29_004": "名古屋大学", "P29_005": "愛知県名古屋市千種区不老町", "P29_006": "1", "P29_007": "0", "P29_008": "01", "P29_009": "東山キャンパス"}, "geometry": {"type": "Point", "coordinates": [136.96376353848828, 35.15507482328175]}}, {"type": "Feature", "properties": {"P29_001": "23107", "P29_002": "F123110106438", "P29_003": "16007", "P29_004": "名古屋工業大学", "P29_005": "愛知県名古屋市昭和区御器所町", "P29_006": "1", "P29_007": "0", "P29_008": "00", "P29_009": null}, "geometry": {"type": "Point", "coordinates": [136.9250204260821, 35.15711201860381]}}, {"type": "Feature", "properties": {"P29_001": "23210", "P29_002": "F123110106447", "P29_003": "16007", "P29_004": "愛知教育大学", "P29_005": "愛知県刈谷市井ケ谷町広沢1", "P29_006": "1", "P29_007": "0", "P29_008": "00", "P29_009": null}, "geometry": {"type": "Point", "coordinates": [137.04986752201984, 35.052639038108964]}}, {"type": "Feature", "properties": {"P29_001": "23201", "P29_002": "F123110106456", "P29_003": "16007", "P29_004": "豊橋技術科学大学", "P29_005": "愛知県豊橋市天伯町字雲雀ヶ丘1-1", "P29_006": "1", "P29_007": "0", "P29_008": "00", "P29_009": null}, "geometry": {"type": "Point", "coordinates": [137.4101428448544, 34.70091782502982]}}, {"type": "Feature", "properties": {"P29_001": "23108", "P29_002": "F123210106463", "P29_003": "16007", "P29_004": "名古屋市立大学", "P29_005": "愛知県名古屋市瑞穂区瑞穂町字川澄1", "P29_006": "3", "P29_007": "0", "P29_008": "01", "P29_009": "桜山(川澄)キャンパス"}, "geometry": {"type": "Point", "coordinates": [136.93558140439313, 35.13880103756343]}}, {"type": "Feature", "properties": {"P29_001": "23238", "P29_002": "F123210106472", "P29_003": "16007", "P29_004": "愛知県立芸術大学", "P29_005": "愛知県長久手市岩作三ケ峯1-114", "P29_006": "2", "P29_007": "0", "P29_008": "00", "P29_009": null}, "geometry": {"type": "Point", "coordinates": [137.06951863076011, 35.16746995373666]}}, {"type": "Feature", "properties": {"P29_001": "23238", "P29_002": "F123210106481", "P29_003": "16007", "P29_004": "愛知県立大学", "P29_005": "愛知県長久手市茨ケ廻間1522-3", "P29_006": "2", "P29_007": "0", "P29_008": "01", "P29_009": "長久手キャンパス"}, "geometry": {"type": "Point", "coordinates": [137.0868486679276, 35.18195122125932]}}, {"type": "Feature", "properties": {"P29_001": "23214", "P29_002": "F123310106498", "P29_003": "16007", "P29_004": "愛知工科大学", "P29_005": "愛知県蒲郡市西迫町馬乗50-2", "P29_006": "4", "P29_007": "0", "P29_008": "00", "P29_009": null}, "geometry": {"type": "Point", "coordinates": [137.19322469186767, 34.83244013521837]}}, {"type": "Feature", "properties": {"P29_001": "23226", "P29_002": "F123310106504", "P29_003": "16007", "P29_004": "名古屋産業大学", "P29_005": "愛知県尾張旭市新居町山の田3255-5", "P29_006": "4", "P29_007": "0", "P29_008": "00", "P29_009": null}, "geometry": {"type": "Point", "coordinates": [137.03107763350746, 35.21954231237015]}}, {"type": "Feature", "properties": {"P29_001": "23202", "P29_002": "F123310106513", "P29_003": "16007", "P29_004": "人間環境大学", "P29_005": "愛知県岡崎市本宿町字上三本松6-2", "P29_006": "4", "P29_007": "0", "P29_008": "00", "P29_009": null}, "geometry": {"type": "Point", "coordinates": [137.26404169369454, 34.897476718633136]}}, {"type": "Feature", "properties": {"P29_001": "23220", "P29_002": "F123310106522", "P29_003": "16007", "P29_004": "名古屋文理大学", "P29_005": "愛知県稲沢市稲沢町前田365", "P29_006": "4", "P29_007": "0", "P29_008": "00", "P29_009": null}, "geometry": {"type": "Point", "coordinates": [136.7914762341836, 35.24823508307026]}}, {"type": "Feature", "properties": {"P29_001": "23108", "P29_002": "F123310106531", "P29_003": "16007", "P29_004": "愛知みずほ大学", "P29_005": "愛知県名古屋市瑞穂区春敲町2-13", "P29_006": "4", "P29_007": "0", "P29_008": "00", "P29_009": null}, "geometry": {"type": "Point", "coordinates": [136.92186501501618, 35.12727947554784]}}, {"type": "Feature", "properties": {"P29_001": "23230", "P29_002": "F123310106540", "P29_003": "16007", "P29_004": "愛知学院大学", "P29_005": "愛知県日進市岩崎町阿良池12", "P29_006": "4", "P29_007": "0", "P29_008": "01", "P29_009": "日進キャンパス"}, "geometry": {"type": "Point", "coordinates": [137.04717890023693, 35.16119480798626]}}, {"type": "Feature", "properties": {"P29_001": "23211", "P29_002": "F123310106559", "P29_003": "16007", "P29_004": "愛知工業大学", "P29_005": "愛知県豊田市八草町八千草1247", "P29_006": "4", "P29_007": "0", "P29_008": "00", "P29_009": null}, "geometry": {"type": "Point", "coordinates": [137.11239831598138, 35.183591826314206]}}, {"type": "Feature", "properties": {"P29_001": "23113", "P29_002": "F123310106568", "P29_003": "16007", "P29_004": "金城学院大学", "P29_005": "愛知県名古屋市守山区大森2-1723", "P29_006": "4", "P29_007": "0", "P29_008": "00", "P29_009": null}, "geometry": {"type": "Point", "coordinates": [136.99455239549224, 35.21122030412656]}}, {"type": "Feature", "properties": {"P29_001": "23101", "P29_002": "F123310106577", "P29_003": "16007", "P29_004": "椙山女学園大学", "P29_005": "愛知県名古屋市千種区星が丘元町17-3", "P29_006": "4", "P29_007": "0", "P29_008": "01", "P29_009": "星が丘キャンパス"}, "geometry": {"type": "Point", "coordinates": [136.9882160259817, 35.15922655820558]}}, {"type": "Feature", "properties": {"P29_001": "23112", "P29_002": "F123310106586", "P29_003": "16007", "P29_004": "大同大学", "P29_005": "愛知県名古屋市南区滝春町10-3", "P29_006": "4", "P29_007": "0", "P29_008": "00", "P29_009": null}, "geometry": {"type": "Point", "coordinates": [136.9058562663261, 35.07819454081181]}}, {"type": "Feature", "properties": {"P29_001": "23107", "P29_002": "F123310106595", "P29_003": "16007", "P29_004": "中京大学", "P29_005": "愛知県名古屋市昭和区八事本町101-2", "P29_006": "4", "P29_007": "0", "P29_008": "01", "P29_009": "名古屋キャンパス"}, "geometry": {"type": "Point", "coordinates": [136.96597310715944, 35.138157415180274]}}, {"type": "Feature", "properties": {"P29_001": "23105", "P29_002": "F123310106602", "P29_003": "16007", "P29_004": "同朋大学", "P29_005": "愛知県名古屋市中村区稲葉地町7-1", "P29_006": "4", "P29_007": "0", "P29_008": "00", "P29_009": null}, "geometry": {"type": "Point", "coordinates": [136.84365493622056, 35.163651392105976]}}, {"type": "Feature", "properties": {"P29_001": "23109", "P29_002": "F123310106611", "P29_003": "16007", "P29_004": "名古屋学院大学", "P29_005": "愛知県名古屋市熱田区熱田西町1-25", "P29_006": "4", "P29_007": "0", "P29_008": "01", "P29_009": null}, "geometry": {"type": "Point", "coordinates": [136.8991371299611, 35.128593301546545]}}, {"type": "Feature", "properties": {"P29_001": "23230", "P29_002": "F123310106620", "P29_003": "16007", "P29_004": "名古屋商科大学", "P29_005": "愛知県日進市米野木町三ヶ峯4-4", "P29_006": "4", "P29_007": "0", "P29_008": "00", "P29_009": null}, "geometry": {"type": "Point", "coordinates": [137.0928968091669, 35.15481920651933]}}, {"type": "Feature", "properties": {"P29_001": "23108", "P29_002": "F123310106639", "P29_003": "16007", "P29_004": "名古屋女子大学", "P29_005": "愛知県名古屋市瑞穂区汐路町3-40", "P29_006": "4", "P29_007": "0", "P29_008": "00", "P29_009": null}, "geometry": {"type": "Point", "coordinates": [136.93837118722905, 35.131565890433954]}}, {"type": "Feature", "properties": {"P29_001": "23107", "P29_002": "F123310106648", "P29_003": "16007", "P29_004": "南山大学", "P29_005": "愛知県名古屋市昭和区山里町18", "P29_006": "4", "P29_007": "0", "P29_008": "00", "P29_009": null}, "geometry": {"type": "Point", "coordinates": [136.9623942956874, 35.14983191178205]}}, {"type": "Feature", "properties": {"P29_001": "23446", "P29_002": "F123310106657", "P29_003": "16007", "P29_004": "日本福祉大学", "P29_005": "愛知県知多郡美浜町大字奥田字会下前35-6", "P29_006": "4", "P29_007": "0", "P29_008": "01", "P29_009": "美浜キャンパス"}, "geometry": {"type": "Point", "coordinates": [136.86840277231065, 34.78431396603699]}}, {"type": "Feature", "properties": {"P29_001": "23116", "P29_002": "F123310106666", "P29_003": "16007", "P29_004": "名城大学", "P29_005": "愛知県名古屋市天白区塩釜口1-501", "P29_006": "4", "P29_007": "0", "P29_008": "01", "P29_009": "天白キャンパス"}, "geometry": {"type": "Point", "coordinates": [136.9758517214668, 35.13526332304682]}}, {"type": "Feature", "properties": {"P29_001": "23105", "P29_002": "F123310106675", "P29_003": "16007", "P29_004": "名古屋音楽大学", "P29_005": "愛知県名古屋市中村区稲葉地町7-1", "P29_006": "4", "P29_007": "0", "P29_008": "00", "P29_009": null}, "geometry": {"type": "Point", "coordinates": [136.84422572871767, 35.1637490431461]}}, {"type": "Feature", "properties": {"P29_001": "23116", "P29_002": "F123310106684", "P29_003": "16007", "P29_004": "豊田工業大学", "P29_005": "愛知県名古屋市天白区久方2-12-1", "P29_006": "4", "P29_007": "0", "P29_008": "00", "P29_009": null}, "geometry": {"type": "Point", "coordinates": [136.98298374118514, 35.10659564053405]}}, {"type": "Feature", "properties": {"P29_001": "23230", "P29_002": "F123310106693", "P29_003": "16007", "P29_004": "名古屋外国語大学", "P29_005": "愛知県日進市岩崎町竹ノ山57", "P29_006": "4", "P29_007": "0", "P29_008": "00", "P29_009": null}, "geometry": {"type": "Point", "coordinates": [137.04263487689536, 35.15842792148623]}}, {"type": "Feature", "properties": {"P29_001": "23202", "P29_002": "F123310106719", "P29_003": "16007", "P29_004": "愛知産業大学", "P29_005": "愛知県岡崎市岡町字原山12-5", "P29_006": "4", "P29_007": "0", "P29_008": "00", "P29_009": null}, "geometry": {"type": "Point", "coordinates": [137.22218630697148, 34.92039960708542]}}, {"type": "Feature", "properties": {"P29_001": "23236", "P29_002": "F123310106728", "P29_003": "16007", "P29_004": "東海学園大学", "P29_005": "愛知県みよし市福谷町西ノ洞21-233", "P29_006": "4", "P29_007": "0", "P29_008": "01", "P29_009": "三好キャンパス"}, "geometry": {"type": "Point", "coordinates": [137.10228899288202, 35.126524640999584]}}, {"type": "Feature", "properties": {"P29_001": "23201", "P29_002": "F123310106737", "P29_003": "16007", "P29_004": "豊橋創造大学", "P29_005": "愛知県豊橋市牛川町字松下20-1", "P29_006": "4", "P29_007": "0", "P29_008": "00", "P29_009": null}, "geometry": {"type": "Point", "coordinates": [137.40889167757112, 34.776169872640864]}}, {"type": "Feature", "properties": {"P29_001": "23115", "P29_002": "F123310106746", "P29_003": "16007", "P29_004": "愛知東邦大学", "P29_005": "愛知県名古屋市名東区平和が丘3-11", "P29_006": "4", "P29_007": "0", "P29_008": "00", "P29_009": null}, "geometry": {"type": "Point", "coordinates": [136.98696249686228, 35.17010344505411]}}, {"type": "Feature", "properties": {"P29_001": "23222", "P29_002": "F123310106755", "P29_003": "16007", "P29_004": "星城大学", "P29_005": "愛知県東海市富貴ノ台2-172", "P29_006": "4", "P29_007": "0", "P29_008": "00", "P29_009": null}, "geometry": {"type": "Point", "coordinates": [136.9010629783011, 35.03351701256359]}}, {"type": "Feature", "properties": {"P29_001": "23219", "P29_002": "F123310106764", "P29_003": "16007", "P29_004": "愛知文教大学", "P29_005": "愛知県小牧市大草5969-3", "P29_006": "4", "P29_007": "0", "P29_008": "00", "P29_009": null}, "geometry": {"type": "Point", "coordinates": [137.00808995129603, 35.300498439380675]}}, {"type": "Feature", "properties": {"P29_001": "23229", "P29_002": "F123310106773", "P29_003": "16007", "P29_004": "桜花学園大学", "P29_005": "愛知県豊明市栄町武侍48", "P29_006": "4", "P29_007": "0", "P29_008": "00", "P29_009": null}, "geometry": {"type": "Point", "coordinates": [136.9753710447023, 35.05982374819104]}}, {"type": "Feature", "properties": {"P29_001": "23201", "P29_002": "F123310106782", "P29_003": "16007", "P29_004": "愛知大学", "P29_005": "愛知県豊橋市町畑町字町畑1-1", "P29_006": "4", "P29_007": "0", "P29_008": "01", "P29_009": "豊橋キャンパス"}, "geometry": {"type": "Point", "coordinates": [137.38653042251192, 34.740455038344514]}}, {"type": "Feature", "properties": {"P29_001": "23202", "P29_002": "F123310106791", "P29_003": "16007", "P29_004": "愛知学泉大学", "P29_005": "愛知県岡崎市舳越町上川成28", "P29_006": "4", "P29_007": "0", "P29_008": "00", "P29_009": "岡崎キャンパス"}, "geometry": {"type": "Point", "coordinates": [137.14447438390215, 34.97248078160372]}}, {"type": "Feature", "properties": {"P29_001": "23223", "P29_002": "F123310106808", "P29_003": "16007", "P29_004": "至学館大学", "P29_005": "愛知県大府市横根町名高山55", "P29_006": "4", "P29_007": "0", "P29_008": "00", "P29_009": null}, "geometry": {"type": "Point", "coordinates": [136.97156085197233, 35.030865549441124]}}, {"type": "Feature", "properties": {"P29_001": "23206", "P29_002": "F123310106817", "P29_003": "16007", "P29_004": "中部大学", "P29_005": "愛知県春日井市松本町1200", "P29_006": "4", "P29_007": "0", "P29_008": "00", "P29_009": null}, "geometry": {"type": "Point", "coordinates": [137.0137984056939, 35.27401181630635]}}, {"type": "Feature", "properties": {"P29_001": "23229", "P29_002": "F123310106826", "P29_003": "16007", "P29_004": "藤田医科大学", "P29_005": "愛知県豊明市沓掛町田楽ケ窪1-98", "P29_006": "4", "P29_007": "0", "P29_008": "00", "P29_009": null}, "geometry": {"type": "Point", "coordinates": [136.99989283704696, 35.07026918657617]}}, {"type": "Feature", "properties": {"P29_001": "23234", "P29_002": "F123310106835", "P29_003": "16007", "P29_004": "名古屋芸術大学", "P29_005": "愛知県北名古屋市熊之庄古井281", "P29_006": "4", "P29_007": "0", "P29_008": "01", "P29_009": "東キャンパス"}, "geometry": {"type": "Point", "coordinates": [136.88112803143898, 35.25605612202372]}}, {"type": "Feature", "properties": {"P29_001": "23238", "P29_002": "F123310106844", "P29_003": "16007", "P29_004": "愛知医科大学", "P29_005": "愛知県長久手市岩作雁又1-1", "P29_006": "4", "P29_007": "0", "P29_008": "00", "P29_009": null}, "geometry": {"type": "Point", "coordinates": [137.04957120195738, 35.19296960155402]}}, {"type": "Feature", "properties": {"P29_001": "23238", "P29_002": "F123310106853", "P29_003": "16007", "P29_004": "愛知淑徳大学", "P29_005": "愛知県長久手市片平2-9", "P29_006": "4", "P29_007": "0", "P29_008": "01", "P29_009": "長久手キャンパス"}, "geometry": {"type": "Point", "coordinates": [137.03163902486207, 35.1573856002377]}}, {"type": "Feature", "properties": {"P29_001": "23215", "P29_002": "F123310106862", "P29_003": "16007", "P29_004": "名古屋経済大学", "P29_005": "愛知県犬山市字内久保61-1", "P29_006": "4", "P29_007": "0", "P29_008": "00", "P29_009": null}, "geometry": {"type": "Point", "coordinates": [136.95380555584927, 35.31969510649609]}}, {"type": "Feature", "properties": {"P29_001": "23230", "P29_002": "F123310106871", "P29_003": "16007", "P29_004": "名古屋学芸大学", "P29_005": "愛知県日進市岩崎町竹ノ山57", "P29_006": "4", "P29_007": "0", "P29_008": "00", "P29_009": null}, "geometry": {"type": "Point", "coordinates": [137.0422798432456, 35.15721886461124]}}, {"type": "Feature", "properties": {"P29_001": "23211", "P29_002": "F123310106880", "P29_003": "16007", "P29_004": "日本赤十字豊田看護大学", "P29_005": "愛知県豊田市白山町七曲12-33", "P29_006": "4", "P29_007": "0", "P29_008": "00", "P29_009": null}, "geometry": {"type": "Point", "coordinates": [137.11938387587546, 35.102825287748836]}}, {"type": "Feature", "properties": {"P29_001": "23203", "P29_002": "F123310106899", "P29_003": "16007", "P29_004": "修文大学", "P29_005": "愛知県一宮市日光町6", "P29_006": "4", "P29_007": "0", "P29_008": "00", "P29_009": null}, "geometry": {"type": "Point", "coordinates": [136.7819117563638, 35.30113655551195]}}, {"type": "Feature", "properties": {"P29_001": "23202", "P29_002": "F123310106906", "P29_003": "16007", "P29_004": "岡崎女子大学", "P29_005": "愛知県岡崎市中町1-8-4", "P29_006": "4", "P29_007": "0", "P29_008": "00", "P29_009": null}, "geometry": {"type": "Point", "coordinates": [137.18507407906506, 34.954997731757835]}}, {"type": "Feature", "properties": {"P29_001": "23203", "P29_002": "F123310106915", "P29_003": "16007", "P29_004": "一宮研伸大学", "P29_005": "愛知県一宮市常願通5-4-1", "P29_006": "4", "P29_007": "0", "P29_008": "00", "P29_009": null}, "geometry": {"type": "Point", "coordinates": [136.8113992757952, 35.31679483382943]}}, {"type": "Feature", "properties": {"P29_001": "23107", "P29_002": "F123310106924", "P29_003": "16007", "P29_004": "名古屋柳城女子大学", "P29_005": "愛知県名古屋市昭和区明月町2-54", "P29_006": "4", "P29_007": "0", "P29_008": "00", "P29_009": null}, "geometry": {"type": "Point", "coordinates": [136.93223900081455, 35.14651504124621]}}, {"type": "Feature", "properties": {"P29_001": "23105", "P29_002": "F123310111883", "P29_003": "16007", "P29_004": "名古屋国際工科専門職大学", "P29_005": "愛知県名古屋市中村区名駅4-27-1", "P29_006": "4", "P29_007": "0", "P29_008": "00", "P29_009": null}, "geometry": {"type": "Point", "coordinates": [136.8857660763737, 35.16812228990534]}}, {"type": "Feature", "properties": {"P29_001": "23103", "P29_002": "F123310106700", "P29_003": "16007", "P29_004": "名古屋造形大学", "P29_005": "愛知県名古屋市北区名城2-4-1", "P29_006": "4", "P29_007": "0", "P29_008": "00", "P29_009": null}, "geometry": {"type": "Point", "coordinates": [136.90474025006037, 35.19053485608343]}}, {"type": "Feature", "properties": {"P29_001": "23202", "P29_002": "F114110104609", "P29_003": "16007", "P29_004": "総合研究大学院大学", "P29_005": "愛知県岡崎市明大寺町西郷中38", "P29_006": "1", "P29_007": "0", "P29_008": "10", "P29_009": "分子科学コース・基礎生物学コース・生理科学コース"}, "geometry": {"type": "Point", "coordinates": [137.16530079985287, 34.949854585619526]}}, {"type": "Feature", "properties": {"P29_001": "23102", "P29_002": "F123110106429", "P29_003": "16007", "P29_004": "名古屋大学", "P29_005": "愛知県名古屋市東区大幸南1-1-20", "P29_006": "1", "P29_007": "0", "P29_008": "02", "P29_009": "大幸キャンパス"}, "geometry": {"type": "Point", "coordinates": [136.94973065634088, 35.188613971828666]}}, {"type": "Feature", "properties": {"P29_001": "23107", "P29_002": "F123110106429", "P29_003": "16007", "P29_004": "名古屋大学", "P29_005": "愛知県名古屋市昭和区鶴舞町65", "P29_006": "1", "P29_007": "0", "P29_008": "03", "P29_009": "鶴舞キャンパス"}, "geometry": {"type": "Point", "coordinates": [136.92166381192914, 35.15812279436573]}}, {"type": "Feature", "properties": {"P29_001": "23101", "P29_002": "F123210106463", "P29_003": "16007", "P29_004": "名古屋市立大学", "P29_005": "愛知県名古屋市千種区北千種2-1-10", "P29_006": "3", "P29_007": "0", "P29_008": "02", "P29_009": "北千種キャンパス"}, "geometry": {"type": "Point", "coordinates": [136.94800491503028, 35.18145873536157]}}, {"type": "Feature", "properties": {"P29_001": "23108", "P29_002": "F123210106463", "P29_003": "16007", "P29_004": "名古屋市立大学", "P29_005": "愛知県名古屋市瑞穂区瑞穂町字山の畑1", "P29_006": "3", "P29_007": "0", "P29_008": "03", "P29_009": "滝子(山の畑)キャンパス"}, "geometry": {"type": "Point", "coordinates": [136.92613073980533, 35.138221353001384]}}, {"type": "Feature", "properties": {"P29_001": "23108", "P29_002": "F123210106463", "P29_003": "16007", "P29_004": "名古屋市立大学", "P29_005": "愛知県名古屋市瑞穂区田辺通3-1", "P29_006": "3", "P29_007": "0", "P29_008": "04", "P29_009": "田辺通キャンパス"}, "geometry": {"type": "Point", "coordinates": [136.94413467182954, 35.130894978502994]}}, {"type": "Feature", "properties": {"P29_001": "23113", "P29_002": "F123210106481", "P29_003": "16007", "P29_004": "愛知県立大学", "P29_005": "愛知県名古屋市守山区上志段味東谷", "P29_006": "2", "P29_007": "0", "P29_008": "02", "P29_009": "守山キャンパス"}, "geometry": {"type": "Point", "coordinates": [137.04621064613775, 35.254156213209484]}}, {"type": "Feature", "properties": {"P29_001": "23101", "P29_002": "F123310106540", "P29_003": "16007", "P29_004": "愛知学院大学", "P29_005": "愛知県名古屋市千種区楠元町1-100", "P29_006": "4", "P29_007": "0", "P29_008": "02", "P29_009": "楠元キャンパス"}, "geometry": {"type": "Point", "coordinates": [136.96136272923437, 35.16738764388668]}}, {"type": "Feature", "properties": {"P29_001": "23103", "P29_002": "F123310106540", "P29_003": "16007", "P29_004": "愛知学院大学", "P29_005": "愛知県名古屋市北区名城3-1-1", "P29_006": "4", "P29_007": "0", "P29_008": "03", "P29_009": "名城公園キャンパス"}, "geometry": {"type": "Point", "coordinates": [136.9053047318771, 35.188420085988035]}}, {"type": "Feature", "properties": {"P29_001": "23101", "P29_002": "F123310106540", "P29_003": "16007", "P29_004": "愛知学院大学", "P29_005": "愛知県名古屋市千種区末盛通2-11", "P29_006": "4", "P29_007": "0", "P29_008": "04", "P29_009": "末盛キャンパス"}, "geometry": {"type": "Point", "coordinates": [136.95714056986589, 35.166680088362966]}}, {"type": "Feature", "properties": {"P29_001": "23230", "P29_002": "F123310106577", "P29_003": "16007", "P29_004": "椙山女学園大学", "P29_005": "愛知県日進市岩崎町竹の山3-2005", "P29_006": "4", "P29_007": "0", "P29_008": "02", "P29_009": "日進キャンパス"}, "geometry": {"type": "Point", "coordinates": [137.03498498594848, 35.15307406731639]}}, {"type": "Feature", "properties": {"P29_001": "23211", "P29_002": "F123310106595", "P29_003": "16007", "P29_004": "中京大学", "P29_005": "愛知県豊田市貝津町床立101", "P29_006": "4", "P29_007": "0", "P29_008": "02", "P29_009": "豊田キャンパス"}, "geometry": {"type": "Point", "coordinates": [137.14767434215383, 35.13928934084019]}}, {"type": "Feature", "properties": {"P29_001": "23204", "P29_002": "F123310106611", "P29_003": "16007", "P29_004": "名古屋学院大学", "P29_005": "愛知県瀬戸市上品野町1350", "P29_006": "4", "P29_007": "0", "P29_008": "02", "P29_009": "瀬戸キャンパス"}, "geometry": {"type": "Point", "coordinates": [137.14448040711906, 35.26665126107604]}}, {"type": "Feature", "properties": {"P29_001": "23109", "P29_002": "F123310106611", "P29_003": "16007", "P29_004": "名古屋学院大学", "P29_005": "愛知県名古屋市熱田区大宝2-4-45", "P29_006": "4", "P29_007": "0", "P29_008": "03", "P29_009": "名古屋キャンパスたいほう"}, "geometry": {"type": "Point", "coordinates": [136.89576899357704, 35.129592967529256]}}, {"type": "Feature", "properties": {"P29_001": "23109", "P29_002": "F123310106611", "P29_003": "16007", "P29_004": "名古屋学院大学", "P29_005": "愛知県名古屋市熱田区大宝3-1-17", "P29_006": "4", "P29_007": "0", "P29_008": "04", "P29_009": "名古屋キャンパスひびの"}, "geometry": {"type": "Point", "coordinates": [136.89328998678627, 35.13228759733027]}}, {"type": "Feature", "properties": {"P29_001": "23109", "P29_002": "F123310106611", "P29_003": "16007", "P29_004": "名古屋学院大学", "P29_005": "愛知県名古屋市熱田区熱田西町1-25", "P29_006": "4", "P29_007": "0", "P29_008": "05", "P29_009": "名古屋キャンパスしろとり"}, "geometry": {"type": "Point", "coordinates": [136.89914646790223, 35.128596071165354]}}, {"type": "Feature", "properties": {"P29_001": "23106", "P29_002": "F123310106657", "P29_003": "16007", "P29_004": "日本福祉大学", "P29_005": "愛知県名古屋市中区千代田5-22-35", "P29_006": "4", "P29_007": "0", "P29_008": "02", "P29_009": "名古屋キャンパス"}, "geometry": {"type": "Point", "coordinates": [136.91801277907874, 35.15759122401934]}}, {"type": "Feature", "properties": {"P29_001": "23205", "P29_002": "F123310106657", "P29_003": "16007", "P29_004": "日本福祉大学", "P29_005": "愛知県半田市東生見町26-2", "P29_006": "4", "P29_007": "0", "P29_008": "03", "P29_009": "半田キャンパス"}, "geometry": {"type": "Point", "coordinates": [136.956, 34.928]}}, {"type": "Feature", "properties": {"P29_001": "23222", "P29_002": "F123310106657", "P29_003": "16007", "P29_004": "日本福祉大学", "P29_005": "愛知県東海市大田町川南新田229", "P29_006": "4", "P29_007": "0", "P29_008": "04", "P29_009": "東海キャンパス"}, "geometry": {"type": "Point", "coordinates": [136.88882010989192, 35.02194668139382]}}, {"type": "Feature", "properties": {"P29_001": "23116", "P29_002": "F123310106666", "P29_003": "16007", "P29_004": "名城大学", "P29_005": "愛知県名古屋市天白区八事山150", "P29_006": "4", "P29_007": "0", "P29_008": "02", "P29_009": "八事キャンパス"}, "geometry": {"type": "Point", "coordinates": [136.9677218092864, 35.137072707190235]}}, {"type": "Feature", "properties": {"P29_001": "23102", "P29_002": "F123310106666", "P29_003": "16007", "P29_004": "名城大学", "P29_005": "愛知県名古屋市東区矢田南4-102-9", "P29_006": "4", "P29_007": "0", "P29_008": "03", "P29_009": "ナゴヤドーム前キャンパス"}, "geometry": {"type": "Point", "coordinates": [136.94413663784167, 35.189382924535245]}}, {"type": "Feature", "properties": {"P29_001": "23116", "P29_002": "F123310106728", "P29_003": "16007", "P29_004": "東海学園大学", "P29_005": "愛知県名古屋市天白区中平2-901", "P29_006": "4", "P29_007": "0", "P29_008": "02", "P29_009": "名古屋キャンパス"}, "geometry": {"type": "Point", "coordinates": [136.99682600792826, 35.11672209696176]}}, {"type": "Feature", "properties": {"P29_001": "23102", "P29_002": "F123310106782", "P29_003": "16007", "P29_004": "愛知大学", "P29_005": "愛知県名古屋市東区筒井2-10-31", "P29_006": "4", "P29_007": "0", "P29_008": "02", "P29_009": "車道キャンパス"}, "geometry": {"type": "Point", "coordinates": [136.92731484477954, 35.174495896814356]}}, {"type": "Feature", "properties": {"P29_001": "23105", "P29_002": "F123310106782", "P29_003": "16007", "P29_004": "愛知大学", "P29_005": "愛知県名古屋市中村区平池町4-60-6", "P29_006": "4", "P29_007": "0", "P29_008": "03", "P29_009": "名古屋キャンパス"}, "geometry": {"type": "Point", "coordinates": [136.88437845733122, 35.1610500871755]}}, {"type": "Feature", "properties": {"P29_001": "23234", "P29_002": "F123310106835", "P29_003": "16007", "P29_004": "名古屋芸術大学", "P29_005": "愛知県北名古屋市徳重西沼65", "P29_006": "4", "P29_007": "0", "P29_008": "02", "P29_009": "西キャンパス"}, "geometry": {"type": "Point", "coordinates": [136.86171394523794, 35.2560290828761]}}, {"type": "Feature", "properties": {"P29_001": "23101", "P29_002": "F123310106853", "P29_003": "16007", "P29_004": "愛知淑徳大学", "P29_005": "愛知県名古屋市千種区桜が丘23", "P29_006": "4", "P29_007": "0", "P29_008": "02", "P29_009": "星が丘キャンパス"}, "geometry": {"type": "Point", "coordinates": [136.98735023299756, 35.165798035582675]}}]}